[
  {
    "itemId": "immediate-danger-000",
    "nameZh": "緊急求助 (警察/消防/救護)",
    "nameEn": "Emergency (Police/Fire/Ambulance)",
    "categoryId": "immediate-danger",
    "states": "NSW, VIC, QLD, SA, NT, WA, TAS, ACT",
    "phone": "000",
    "website": "",
    "actionType": "phone",
    "descZh": "生命受威脅、火災或犯罪進行中。如不諳英語，接通後可說「Cantonese」要求傳譯。",
    "descEn": "Life-threatening emergencies, fires or crimes in progress.",
    "rank": 1,
    "enabled": true,
    "hoursZh": "24 小時 / 7 日",
    "hoursEn": "24/7"
  },
  {
    "itemId": "disaster-ses",
    "nameZh": "SES 緊急救援 (水災/風暴)",
    "nameEn": "State Emergency Service (SES)",
    "categoryId": "disaster",
    "states": "NSW, VIC, QLD, SA, NT, WA, TAS, ACT",
    "phone": "132 500",
    "website": "https://www.ses.nsw.gov.au",
    "actionType": "phone",
    "descZh": "洪水、暴風雨、樹木倒塌等事故求助（通常屬非即時生命危險，但需要緊急協助）。如有即時危險請先致電 000。",
    "descEn": "For flood, storm damage and fallen trees. Call 000 if there is immediate danger.",
    "rank": 2,
    "enabled": true,
    "hoursZh": "24 小時 / 7 日（各州 SES）",
    "hoursEn": "24/7 (state SES)"
  },
  {
    "itemId": "health-13sick",
    "nameZh": "13 SICK 上門醫生 (夜診)",
    "nameEn": "National Home Doctor Service",
    "categoryId": "health",
    "states": "NSW, VIC, QLD, SA, NT, TAS, WA, ACT",
    "phone": "13 74 25",
    "website": "https://www.13sick.com.au",
    "actionType": "phone",
    "descZh": "醫生收工後(晚間/週末)的上門診症服務，部分可 Bulk Bill。",
    "descEn": "Night and after-hours home doctor service.",
    "rank": 3,
    "enabled": true,
    "hoursZh": "夜間／週末（以服務地區為準）",
    "hoursEn": "After-hours (varies by area)"
  },
  {
    "itemId": "mental-lifeline",
    "nameZh": "生命熱線（情緒及危機支援）",
    "nameEn": "Lifeline",
    "categoryId": "mental-health",
    "states": "NSW, VIC, QLD, SA, NT, TAS, WA, ACT",
    "phone": "13 11 14",
    "website": "https://www.lifeline.org.au",
    "actionType": "phone",
    "descZh": "24 小時情緒支援及危機熱線，適合感到情緒崩潰、極度壓力或有自殺念頭的人士，提供即時傾聽及支援。",
    "descEn": "24-hour crisis support for people experiencing emotional distress, overwhelming stress, or suicidal thoughts.",
    "rank": 6,
    "enabled": true,
    "hoursZh": "24 小時 / 7 日",
    "hoursEn": "24/7"
  },
  {
    "itemId": "mental-beyondblue",
    "nameZh": "Beyond Blue（抑鬱與焦慮支援）",
    "nameEn": "Beyond Blue",
    "categoryId": "mental-health",
    "states": "NSW, VIC, QLD, SA, NT, TAS, WA, ACT",
    "phone": "1300 22 4636",
    "website": "https://www.beyondblue.org.au",
    "actionType": "phone",
    "descZh": "為受抑鬱、焦慮及相關心理困擾影響的人士提供 24 小時支援與資訊，亦為家人及照顧者提供建議。",
    "descEn": "24-hour support and information for people affected by depression, anxiety, and related mental health concerns, as well as for family members and carers.",
    "rank": 4,
    "enabled": true,
    "hoursZh": "24 小時 / 7 日",
    "hoursEn": "24/7"
  },
  {
    "itemId": "mental-suicidecallback",
    "nameZh": "自殺回電服務 (專業輔導)",
    "nameEn": "Suicide Call Back Service",
    "categoryId": "mental-health",
    "states": "NSW, VIC, QLD, SA, NT, TAS, WA, ACT",
    "phone": "1300 659 467",
    "website": "https://www.suicidecallbackservice.org.au",
    "actionType": "phone",
    "descZh": "24小時專業心理輔導，比 Lifeline 更深入。",
    "descEn": "24/7 professional counselling service.",
    "rank": 5,
    "enabled": true,
    "hoursZh": "24 小時 / 7 日",
    "hoursEn": "24/7"
  },
  {
    "itemId": "support-tis",
    "nameZh": "TIS 全國翻譯服務",
    "nameEn": "TIS National",
    "categoryId": "support",
    "states": "NSW, VIC, QLD, SA, NT, TAS, WA, ACT",
    "phone": "131 450",
    "website": "https://www.tisnational.gov.au",
    "actionType": "phone",
    "descZh": "政府免費電話傳譯服務，可要求廣東話。",
    "descEn": "Free government telephone interpreting service.",
    "rank": 7,
    "enabled": true,
    "hoursZh": "24 小時 / 7 日",
    "hoursEn": "24/7"
  },
  {
    "itemId": "legal-fairwork",
    "nameZh": "Fair Work (勞工維權)",
    "nameEn": "Fair Work Ombudsman",
    "categoryId": "legal",
    "states": "NSW, VIC, QLD, SA, NT, TAS, WA, ACT",
    "phone": "13 13 94",
    "website": "https://www.fairwork.gov.au",
    "actionType": "phone",
    "descZh": "被僱主剝削、欠薪或工時問題時求助。",
    "descEn": "Help with workplace rights and pay issues.",
    "rank": 8,
    "enabled": true,
    "hoursZh": "辦公時間（以官網為準）",
    "hoursEn": "Business hours (see website)"
  },
  {
    "itemId": "roadside-aus",
    "nameZh": "全澳道路救援（汽車會）",
    "nameEn": "National Roadside Assistance (State Auto Clubs)",
    "categoryId": "roadside",
    "states": "NSW, VIC, QLD, SA, NT, WA, TAS, ACT",
    "phone": "13 11 11",
    "website": "https://www.aaa.asn.au",
    "actionType": "phone",
    "descZh": "全澳汽車道路救援入口（NRMA／RACV／RACQ／RAC 等）。撥打 13 11 11 會按你所在州份自動接駁至當地汽車會。一般需會員或保險附加服務。",
    "descEn": "National roadside assistance via state auto clubs (NRMA, RACV, RACQ, RAC, etc). Calls to 13 11 11 are routed automatically to your local state provider. Membership or insurance add-on usually required.",
    "rank": 9,
    "enabled": true,
    "hoursZh": "24 小時（需會員；以服務條款為準）",
    "hoursEn": "24/7 (membership required; terms apply)"
  },
  {
    "itemId": "rent-tenants-nsw",
    "nameZh": "NSW 租務聯會",
    "nameEn": "Tenants' Union of NSW",
    "categoryId": "rent",
    "states": "NSW",
    "phone": "1800 251 101",
    "website": "https://www.tenants.org.au",
    "actionType": "phone",
    "descZh": "新州租客法律建議。被無理加租、拒絕維修或逼遷時求助。",
    "descEn": "Tenant rights advice in NSW, including rent increases, repairs, or eviction issues.",
    "rank": 10,
    "enabled": true,
    "hoursZh": "辦公時間（以官網為準）",
    "hoursEn": "Business hours (see website)"
  },
  {
    "itemId": "rent-tenants-vic",
    "nameZh": "VIC 租客權益 (Tenants Victoria)",
    "nameEn": "Tenants Victoria",
    "categoryId": "rent",
    "states": "VIC",
    "phone": "03 9416 2577",
    "website": "https://tenantsvic.org.au",
    "actionType": "phone",
    "descZh": "維州租客法律支援，處理租務糾紛。",
    "descEn": "Tenant rights advice and support in Victoria.",
    "rank": 11,
    "enabled": true,
    "hoursZh": "辦公時間（以官網為準）",
    "hoursEn": "Business hours (see website)"
  },
  {
    "itemId": "rent-qstars",
    "nameZh": "QLD 租客權益 (QSTARS)",
    "nameEn": "QSTARS",
    "categoryId": "rent",
    "states": "QLD",
    "phone": "1300 744 263",
    "website": "https://tenantsqld.org.au",
    "actionType": "phone",
    "descZh": "昆士蘭租客諮詢及轉介服務。",
    "descEn": "Tenant advice and referral service in Queensland.",
    "rank": 12,
    "enabled": true,
    "hoursZh": "辦公時間（以官網為準）",
    "hoursEn": "Business hours (see website)"
  },
  {
    "itemId": "rent-circle-green",
    "nameZh": "WA 租務諮詢 (Circle Green)",
    "nameEn": "Circle Green Community Legal",
    "categoryId": "rent",
    "states": "WA",
    "phone": "08 6148 3636",
    "website": "https://circlegreen.org.au",
    "actionType": "phone",
    "descZh": "西澳租客法律諮詢。",
    "descEn": "Tenant and housing legal advice in Western Australia.",
    "rank": 13,
    "enabled": true,
    "hoursZh": "星期一至五 9am–4pm（以官網為準）",
    "hoursEn": "Mon–Fri 9am–4pm (see website)"
  },
  {
    "itemId": "government-service-nsw",
    "nameZh": "Service NSW",
    "nameEn": "Service NSW",
    "categoryId": "government",
    "states": "NSW",
    "phone": "13 77 88",
    "website": "https://www.service.nsw.gov.au",
    "actionType": "phone",
    "descZh": "新州政府服務（車牌、Opal 卡、罰單）。",
    "descEn": "NSW government services (licences, Opal, fines).",
    "rank": 14,
    "enabled": true,
    "hoursZh": "辦公時間（部份服務 24/7；以官網為準）",
    "hoursEn": "Business hours (some services 24/7; see website)"
  },
  {
    "itemId": "government-service-vic",
    "nameZh": "Service Victoria",
    "nameEn": "Service Victoria",
    "categoryId": "government",
    "states": "VIC",
    "phone": "1300 650 172",
    "website": "https://www.service.vic.gov.au",
    "actionType": "phone",
    "descZh": "維州政府服務（車牌、Myki 卡、登記）。",
    "descEn": "Victoria government services and enquiries.",
    "rank": 15,
    "enabled": true,
    "hoursZh": "辦公時間（以官網為準）",
    "hoursEn": "Business hours (see website)"
  },
  {
    "itemId": "government-13qgov",
    "nameZh": "QLD 政府熱線",
    "nameEn": "13 QGOV",
    "categoryId": "government",
    "states": "QLD",
    "phone": "13 74 68",
    "website": "https://www.qld.gov.au",
    "actionType": "phone",
    "descZh": "昆士蘭政府綜合查詢（交通、牌照）。",
    "descEn": "Queensland Government enquiries (transport, licences, services).",
    "rank": 16,
    "enabled": true,
    "hoursZh": "辦公時間（以官網為準）",
    "hoursEn": "Business hours (see website)"
  },
  {
    "itemId": "health-healthdirect",
    "nameZh": "Healthdirect 醫療諮詢",
    "nameEn": "Healthdirect (24-hour Nurse Advice)",
    "categoryId": "health",
    "states": "NSW, VIC, QLD, SA, NT, TAS, WA, ACT",
    "phone": "1800 022 222",
    "website": "https://www.healthdirect.gov.au",
    "actionType": "phone",
    "descZh": "由註冊護士 24 小時接聽的醫療諮詢服務，為非緊急健康問題提供專業建議，協助判斷是否需要睇醫生、急症室或留在家中休息。",
    "descEn": "24-hour health advice from registered nurses for non-emergency medical concerns, helping you decide whether to see a GP, go to an emergency department, or manage symptoms at home.",
    "rank": 17,
    "enabled": true,
    "hoursZh": "24 小時 / 7 日",
    "hoursEn": "24/7"
  },
  {
    "itemId": "daily-scamwatch",
    "nameZh": "Scamwatch (防騙舉報)",
    "nameEn": "ACCC Scamwatch",
    "categoryId": "daily",
    "states": "NSW, VIC, QLD, SA, NT, TAS, WA, ACT",
    "phone": "1300 795 995",
    "website": "https://www.scamwatch.gov.au",
    "actionType": "phone",
    "descZh": "舉報電話詐騙、網上情緣或投資騙案。",
    "descEn": "Report scams including phone, online dating, and investment scams.",
    "rank": 18,
    "enabled": true,
    "hoursZh": "辦公時間（網站可 24/7 提交）",
    "hoursEn": "Business hours (online anytime)"
  },
  {
    "itemId": "daily-crimestoppers",
    "nameZh": "Crime Stoppers (匿名舉報)",
    "nameEn": "Crime Stoppers",
    "categoryId": "daily",
    "states": "NSW, VIC, QLD, SA, NT, TAS, WA, ACT",
    "phone": "1800 333 000",
    "website": "https://crimestoppers.com.au",
    "actionType": "phone",
    "descZh": "匿名舉報罪案線索，不需透露身份。",
    "descEn": "Anonymous crime reporting.",
    "rank": 19,
    "enabled": true,
    "hoursZh": "24 小時 / 7 日（一般可電話／網上）",
    "hoursEn": "24/7 (phone/online)"
  },
  {
    "itemId": "police-assistance-line",
    "nameZh": "警察協助 (非緊急)",
    "nameEn": "Police Assistance Line",
    "categoryId": "police-non-urgent",
    "states": "NSW, VIC, QLD, SA, NT, TAS, WA, ACT",
    "phone": "131 444",
    "website": "https://www.police.nsw.gov.au/online_services/police_assistance_line",
    "actionType": "phone",
    "descZh": "報案非緊急罪行（如財物被盜、車輛損毀）。",
    "descEn": "Report non-urgent incidents such as theft or property damage.",
    "rank": 20,
    "enabled": true,
    "hoursZh": "24 小時 / 7 日",
    "hoursEn": "24/7"
  },
  {
    "itemId": "support-1800respect",
    "nameZh": "1800 RESPECT (家暴支援)",
    "nameEn": "1800RESPECT",
    "categoryId": "support",
    "states": "NSW, VIC, QLD, SA, NT, TAS, WA, ACT",
    "phone": "1800 737 732",
    "website": "https://www.1800respect.org.au",
    "actionType": "phone",
    "descZh": "為受家暴或性侵影響的人士提供 24 小時支援（電話／網上聊天／短訊等）。如有即時危險請致電 000。",
    "descEn": "24/7 support for domestic, family and sexual violence (phone / online / text options). Call 000 if in immediate danger.",
    "rank": 21,
    "enabled": true,
    "hoursZh": "24 小時 / 7 日",
    "hoursEn": "24/7"
  },
  {
    "itemId": "support-centrelink-multi",
    "nameZh": "Centrelink (社會福利-多語言)",
    "nameEn": "Centrelink (Multilingual)",
    "categoryId": "support",
    "states": "NSW, VIC, QLD, SA, NT, TAS, WA, ACT",
    "phone": "131 202",
    "website": "https://www.servicesaustralia.gov.au/centrelink",
    "actionType": "phone",
    "descZh": "查詢政府津貼及福利，此號碼為多語言專線。",
    "descEn": "Multilingual line for Centrelink payments and services.",
    "rank": 22,
    "enabled": true,
    "hoursZh": "辦公時間（以官網為準）",
    "hoursEn": "Business hours (see website)"
  },
  {
    "itemId": "support-homeaffairs",
    "nameZh": "澳洲移民局",
    "nameEn": "Dept of Home Affairs",
    "categoryId": "support",
    "states": "NSW, VIC, QLD, SA, NT, TAS, WA, ACT",
    "phone": "131 881",
    "website": "https://immi.homeaffairs.gov.au",
    "actionType": "phone",
    "descZh": "查詢簽證條款、永居申請或公民入籍事宜。",
    "descEn": "Visa, permanent residency, and citizenship enquiries.",
    "rank": 23,
    "enabled": true,
    "hoursZh": "辦公時間（以官網為準）",
    "hoursEn": "Business hours (see website)"
  },
  {
    "itemId": "support-ato",
    "nameZh": "澳洲稅務局 (ATO)",
    "nameEn": "Australian Taxation Office",
    "categoryId": "support",
    "states": "NSW, VIC, QLD, SA, NT, TAS, WA, ACT",
    "phone": "13 28 61",
    "website": "https://www.ato.gov.au",
    "actionType": "phone",
    "descZh": "查詢 TFN、報稅或 Super 事宜。",
    "descEn": "TFN, tax return, and super enquiries.",
    "rank": 24,
    "enabled": true,
    "hoursZh": "辦公時間（以官網為準）",
    "hoursEn": "Business hours (see website)"
  },
  {
    "itemId": "mental-nsw-line",
    "nameZh": "NSW 精神健康專線",
    "nameEn": "NSW Mental Health Line",
    "categoryId": "mental-health",
    "states": "NSW",
    "phone": "1800 011 511",
    "website": "https://www.health.nsw.gov.au/mentalhealth",
    "actionType": "phone",
    "descZh": "NSW 公營精神健康服務入口。",
    "descEn": "NSW entry point to public mental health services.",
    "rank": 25,
    "enabled": true,
    "hoursZh": "24 小時 / 7 日",
    "hoursEn": "24/7"
  },
  {
    "itemId": "legal-aid-qld",
    "nameZh": "Legal Aid Queensland",
    "nameEn": "Legal Aid Queensland",
    "categoryId": "legal",
    "states": "QLD",
    "phone": "1300 651 188",
    "website": "https://www.legalaid.qld.gov.au",
    "actionType": "phone",
    "descZh": "昆士蘭免費法律援助。",
    "descEn": "Free legal help and advice in Queensland.",
    "rank": 26,
    "enabled": true,
    "hoursZh": "辦公時間（以官網為準）",
    "hoursEn": "Business hours (see website)"
  },
  {
    "itemId": "transport-nsw",
    "nameZh": "NSW 交通資訊",
    "nameEn": "Transport for NSW",
    "categoryId": "transport",
    "states": "NSW",
    "phone": "131 500",
    "website": "https://transportnsw.info",
    "actionType": "phone",
    "descZh": "Opal 卡、火車巴士班次查詢。",
    "descEn": "Transport info in NSW (Opal, trains, buses).",
    "rank": 27,
    "enabled": true,
    "hoursZh": "辦公時間（緊急資訊以官網為準）",
    "hoursEn": "Business hours (see website for alerts)"
  },
  {
    "itemId": "transport-ptv",
    "nameZh": "PTV (維州交通)",
    "nameEn": "Public Transport Victoria",
    "categoryId": "transport",
    "states": "VIC",
    "phone": "1800 800 007",
    "website": "https://www.ptv.vic.gov.au",
    "actionType": "phone",
    "descZh": "Myki 卡、墨爾本交通查詢。",
    "descEn": "Public transport info in Victoria (Myki, services).",
    "rank": 28,
    "enabled": true,
    "hoursZh": "辦公時間（以官網為準）",
    "hoursEn": "Business hours (see website)"
  },
  {
    "itemId": "transport-translink",
    "nameZh": "Translink (昆州交通)",
    "nameEn": "Translink",
    "categoryId": "transport",
    "states": "QLD",
    "phone": "13 12 30",
    "website": "https://translink.com.au",
    "actionType": "phone",
    "descZh": "Go Card、布里斯本交通查詢。",
    "descEn": "Public transport info in Queensland (Go Card, services).",
    "rank": 29,
    "enabled": true,
    "hoursZh": "辦公時間（以官網為準）",
    "hoursEn": "Business hours (see website)"
  },
  {
    "itemId": "transport-transperth",
    "nameZh": "Transperth (西澳交通)",
    "nameEn": "Transperth",
    "categoryId": "transport",
    "states": "WA",
    "phone": "13 62 13",
    "website": "https://www.transperth.wa.gov.au",
    "actionType": "phone",
    "descZh": "SmartRider、珀斯交通查詢。",
    "descEn": "Public transport info in Western Australia (SmartRider, services).",
    "rank": 30,
    "enabled": true,
    "hoursZh": "辦公時間（以官網為準）",
    "hoursEn": "Business hours (see website)"
  },
  {
    "itemId": "support-redcross-emergency",
    "nameZh": "Emergency Relief（澳洲紅十字會）",
    "nameEn": "Emergency Relief (Australian Red Cross)",
    "categoryId": "support",
    "states": "NSW, VIC, QLD, SA, NT, TAS, WA, ACT",
    "phone": "",
    "website": "https://www.redcross.org.au/migration/emergency-relief/",
    "actionType": "link",
    "descZh": "澳洲紅十字會為臨時簽證人士、尋求庇護者及簽證狀態未明的人士，提供緊急援助，包括食物、藥物或臨時住宿等基本生活需要。",
    "descEn": "Emergency relief provided by the Australian Red Cross to support people on temporary visas, seeking asylum, or with uncertain visa status, including help with food, medicine, and short-term accommodation.",
    "rank": 35,
    "enabled": true,
    "hoursZh": "以官網／轉介安排為準",
    "hoursEn": "See website / referral-based"
  },
  {
    "itemId": "support-askizzy",
    "nameZh": "Ask Izzy（社區支援搜尋）",
    "nameEn": "Ask Izzy",
    "categoryId": "support",
    "states": "NSW, VIC, QLD, SA, NT, TAS, WA, ACT",
    "phone": "",
    "website": "https://askizzy.org.au/",
    "actionType": "link",
    "descZh": "Ask Izzy 提供全澳各地的社區支援資訊搜尋，包括食物援助、經濟支援、住屋、家暴支援、心理輔導等服務，適合需要即時尋找本地資源的人士使用。",
    "descEn": "Ask Izzy helps you find local support services across Australia, including food assistance, financial help, housing support, family violence services, and counselling.",
    "rank": 36,
    "enabled": true,
    "hoursZh": "24 小時（網站搜尋）",
    "hoursEn": "24/7 (website)"
  },
  {
    "itemId": "mental-kids-helpline",
    "nameZh": "Kids Helpline（兒童及青少年）",
    "nameEn": "Kids Helpline",
    "categoryId": "mental-health",
    "states": "NSW, VIC, QLD, SA, NT, TAS, WA, ACT",
    "phone": "1800 55 1800",
    "website": "https://kidshelpline.com.au",
    "actionType": "phone",
    "descZh": "為 5–25 歲兒童及青少年提供 24 小時免費及保密的電話輔導，涵蓋情緒、家庭、學校、人際關係等問題。",
    "descEn": "24-hour free and confidential counselling for children and young people aged 5–25, covering emotional wellbeing, family, school, and relationship issues.",
    "rank": 37,
    "enabled": true,
    "hoursZh": "24 小時 / 7 日",
    "hoursEn": "24/7"
  },
  {
    "itemId": "legal-iarc-nsw",
    "nameZh": "移民諮詢與權益中心 (IARC)",
    "nameEn": "Immigration Advice and Rights Centre (IARC)",
    "categoryId": "legal",
    "states": "NSW",
    "phone": "02 8234 0700",
    "website": "https://www.iarc.asn.au",
    "actionType": "phone",
    "descZh": "為新州移民及臨時簽證人士提供免費法律建議，重點處理移民身份及權益問題。電話諮詢時間為星期二及四，下午 2–4 時。",
    "descEn": "Free immigration legal advice for migrants and temporary visa holders in NSW. Phone advice available Tuesday and Thursday, 2pm–4pm.",
    "rank": 38,
    "enabled": true,
    "hoursZh": "星期二／四 2pm–4pm",
    "hoursEn": "Tue & Thu 2pm–4pm"
  },
  {
    "itemId": "legal-legalaid-nsw",
    "nameZh": "Legal Aid NSW",
    "nameEn": "Legal Aid NSW",
    "categoryId": "legal",
    "states": "NSW",
    "phone": "02 9219 5000",
    "website": "https://www.legalaid.nsw.gov.au",
    "actionType": "phone",
    "descZh": "新州法律援助機構，提供法律援助服務及合資格人士的法律代表／支援；如只需要免費法律資訊及初步意見，請致電 LawAccess NSW（1300 888 529）。",
    "descEn": "NSW legal aid service. For free legal information/initial advice and referral, call LawAccess NSW (1300 888 529).",
    "rank": 39,
    "enabled": true,
    "hoursZh": "辦公時間（以官網為準）",
    "hoursEn": "Business hours (see website)"
  },
  {
    "itemId": "legal-legalaid-act",
    "nameZh": "Legal Aid ACT",
    "nameEn": "Legal Aid ACT",
    "categoryId": "legal",
    "states": "ACT",
    "phone": "1300 654 314",
    "website": "https://www.legalaidact.org.au",
    "actionType": "phone",
    "descZh": "首都領地法律援助服務，提供免費法律意見及支援。電話服務時間為星期一至五，上午 9 時至下午 5 時。",
    "descEn": "Legal aid service for the ACT providing free legal advice and assistance. Phone service Monday–Friday, 9am–5pm.",
    "rank": 40,
    "enabled": true,
    "hoursZh": "星期一至五 9am–5pm",
    "hoursEn": "Mon–Fri 9am–5pm"
  },
  {
    "itemId": "legal-asrc-vic",
    "nameZh": "難民支援中心法律服務 (ASRC)",
    "nameEn": "Asylum Seeker Resource Centre (ASRC)",
    "categoryId": "legal",
    "states": "VIC",
    "phone": "03 9274 9827",
    "website": "https://www.asrc.org.au",
    "actionType": "phone",
    "descZh": "為尋求庇護者提供法律初步評估及轉介服務，協助處理移民及難民相關法律問題。",
    "descEn": "Legal triage and referral services for people seeking asylum in Victoria.",
    "rank": 41,
    "enabled": true,
    "hoursZh": "辦公時間（以官網為準）",
    "hoursEn": "Business hours (see website)"
  },
  {
    "itemId": "legal-scales-wa",
    "nameZh": "SCALES 社區法律中心",
    "nameEn": "Southern Communities Advocacy Legal Education Service (SCALES)",
    "categoryId": "legal",
    "states": "WA",
    "phone": "08 9550 0400",
    "website": "https://www.communitylegalwa.org.au/faqs/scales-community-legal-centre-southern-communities-advocacy-legal-education-service",
    "actionType": "phone",
    "descZh": "西澳南部社區法律中心，為當地居民提供免費法律諮詢及支援服務。",
    "descEn": "Community legal centre providing free legal advice and support in southern Western Australia.",
    "rank": 42,
    "enabled": true,
    "hoursZh": "辦公時間（以官網為準）",
    "hoursEn": "Business hours (see website)"
  },
  {
    "itemId": "legal-justicenet-sa",
    "nameZh": "JusticeNet SA",
    "nameEn": "JusticeNet",
    "categoryId": "legal",
    "states": "SA",
    "phone": "08 8410 2280",
    "website": "https://justicenet.org.au",
    "actionType": "phone",
    "descZh": "為經濟困難人士轉介免費或義務法律服務，包括移民相關案件。",
    "descEn": "Connects people in financial hardship with free or pro bono legal assistance, including migration matters.",
    "rank": 43,
    "enabled": true,
    "hoursZh": "辦公時間（以官網為準）",
    "hoursEn": "Business hours (see website)"
  },
  {
    "itemId": "legal-mcnt-nt",
    "nameZh": "北領地多元文化協會",
    "nameEn": "Multicultural Council of the NT",
    "categoryId": "legal",
    "states": "NT",
    "phone": "08 8945 9122",
    "website": "https://www.mcnt.org.au/",
    "actionType": "phone",
    "descZh": "為北領地移民及多元文化社群提供支援及轉介，包括法律相關服務。",
    "descEn": "Support and referral services for migrants and multicultural communities in the Northern Territory, including legal support.",
    "rank": 44,
    "enabled": true,
    "hoursZh": "辦公時間（以官網為準）",
    "hoursEn": "Business hours (see website)"
  },
  {
    "itemId": "health-poisons",
    "nameZh": "中毒資訊中心",
    "nameEn": "Poisons Information Centre",
    "categoryId": "health",
    "states": "NSW, VIC, QLD, SA, NT, TAS, WA, ACT",
    "phone": "13 11 26",
    "website": "https://www.healthdirect.gov.au/poisons-information-centre",
    "actionType": "phone",
    "descZh": "提供 24 小時中毒相關專業建議，包括誤食藥物、化學品、植物、清潔用品或被昆蟲／動物咬傷。如情況危急，仍應即時致電 000。",
    "descEn": "24-hour expert advice for poisoning, including medicines, chemicals, plants, household products, or bites and stings. Call 000 if the situation is life-threatening.",
    "rank": 45,
    "enabled": true,
    "hoursZh": "24 小時 / 7 日",
    "hoursEn": "24/7"
  },
  {
    "itemId": "health-asthma",
    "nameZh": "哮喘支援熱線",
    "nameEn": "Asthma Australia Helpline",
    "categoryId": "health",
    "states": "NSW, VIC, QLD, SA, NT, TAS, WA, ACT",
    "phone": "1800 645 130",
    "website": "https://asthma.org.au",
    "actionType": "phone",
    "descZh": "為哮喘患者及照顧者提供支援與資訊，包括症狀處理、藥物使用及行動計劃建議。適合哮喘發作前後尋求指引。",
    "descEn": "Support and information for people with asthma and their carers, including symptom management, medication use, and asthma action plans.",
    "rank": 46,
    "enabled": true,
    "hoursZh": "以官網為準",
    "hoursEn": "See website"
  },
  {
    "itemId": "health-diabetes",
    "nameZh": "糖尿病支援熱線",
    "nameEn": "Diabetes Australia",
    "categoryId": "health",
    "states": "NSW, VIC, QLD, SA, NT, TAS, WA, ACT",
    "phone": "1300 136 588",
    "website": "https://www.diabetesaustralia.com.au",
    "actionType": "phone",
    "descZh": "為糖尿病患者及照顧者提供資訊及支援，包括血糖管理、低血糖處理及生活建議。",
    "descEn": "Information and support for people living with diabetes and their carers, including blood glucose management and hypoglycaemia advice.",
    "rank": 47,
    "enabled": true,
    "hoursZh": "以官網為準",
    "hoursEn": "See website"
  },
  {
    "itemId": "ageing-myagedcare",
    "nameZh": "My Aged Care（長者照顧服務入口）",
    "nameEn": "My Aged Care",
    "categoryId": "ageing",
    "states": "NSW, VIC, QLD, SA, NT, TAS, WA, ACT",
    "phone": "1800 200 422",
    "website": "https://www.myagedcare.gov.au",
    "actionType": "phone",
    "descZh": "長者照顧服務資訊與轉介入口（評估家居支援院舍等）。",
    "descEn": "Information and entry point for aged care services and assessments.",
    "rank": 48,
    "enabled": true,
    "hoursZh": "辦公時間（以官網為準）",
    "hoursEn": "Business hours (see website)"
  },
  {
    "itemId": "ageing-elderhelp",
    "nameZh": "長者虐待求助熱線",
    "nameEn": "Elder Help Line",
    "categoryId": "ageing",
    "states": "NSW, VIC, QLD, SA, NT, TAS, WA, ACT",
    "phone": "1800 353 374",
    "website": "https://www.health.gov.au/contacts/elder-abuse-helpline",
    "actionType": "phone",
    "descZh": "如懷疑長者遭受虐待, 忽視或經濟剝削, 可致電尋求支援與建議。",
    "descEn": "Support and advice if you suspect elder abuse, neglect or financial exploitation.",
    "rank": 49,
    "enabled": true,
    "hoursZh": "以官網公布為準",
    "hoursEn": "See website for hours"
  },
  {
    "itemId": "disability-ndis",
    "nameZh": "NDIS（殘障支援計劃）聯絡",
    "nameEn": "NDIS Contact Centre",
    "categoryId": "disability",
    "states": "NSW, VIC, QLD, SA, NT, TAS, WA, ACT",
    "phone": "1800 800 110",
    "website": "https://www.ndis.gov.au",
    "actionType": "phone",
    "descZh": "NDIS 一般查詢, 申請流程與支援計劃相關資訊。",
    "descEn": "General enquiries about the NDIS and access/support.",
    "rank": 50,
    "enabled": true,
    "hoursZh": "辦公時間（以官網為準）",
    "hoursEn": "Business hours (see website)"
  },
  {
    "itemId": "disability-ndis-report-fraud",
    "nameZh": "NDIS 舉報詐騙／不當行為",
    "nameEn": "NDIS Fraud Reporting",
    "categoryId": "disability",
    "states": "NSW, VIC, QLD, SA, NT, TAS, WA, ACT",
    "phone": "",
    "website": "https://www.ndis.gov.au/contact/report-suspicious-behaviour",
    "actionType": "link",
    "descZh": "如懷疑 NDIS 相關詐騙或不當行為, 可透過官方頁面作出舉報。",
    "descEn": "Report suspected fraud or suspicious behaviour related to the NDIS.",
    "rank": 51,
    "enabled": true,
    "hoursZh": "24 小時（網上提交）",
    "hoursEn": "24/7 (online)"
  },
  {
    "itemId": "health-nsw-health",
    "nameZh": "NSW Health（健康資訊入口）",
    "nameEn": "NSW Health",
    "categoryId": "health",
    "states": "NSW",
    "phone": "",
    "website": "https://www.health.nsw.gov.au",
    "actionType": "link",
    "descZh": "新州官方健康資訊與醫療服務導航入口（資訊用途，非即時求助或電話諮詢）。",
    "descEn": "NSW official health information and service navigation website (information only; not an emergency or phone advice line).",
    "rank": 52,
    "enabled": true,
    "hoursZh": "24/7（網站）",
    "hoursEn": "24/7 (website)"
  },
  {
    "itemId": "health-qld-health",
    "nameZh": "QLD Health（一般健康資訊）",
    "nameEn": "Queensland Health",
    "categoryId": "health",
    "states": "QLD",
    "phone": "",
    "website": "https://www.health.qld.gov.au",
    "actionType": "link",
    "descZh": "昆州健康資訊入口（醫療服務, 公共健康資訊, 指引）。",
    "descEn": "Queensland health information and services.",
    "rank": 53,
    "enabled": true,
    "hoursZh": "24 小時（網站）",
    "hoursEn": "24/7 (website)"
  },
  {
    "itemId": "health-vic-betterhealth",
    "nameZh": "VIC Better Health Channel（健康資訊）",
    "nameEn": "Better Health Channel (VIC)",
    "categoryId": "health",
    "states": "VIC",
    "phone": "",
    "website": "https://www.betterhealth.vic.gov.au",
    "actionType": "link",
    "descZh": "維州官方健康資訊網站，提供常見疾病與身心健康資訊（資訊入口，非緊急求助）。",
    "descEn": "Victorian Government health information website (information only; not an emergency service).",
    "rank": 54,
    "enabled": true,
    "hoursZh": "24/7（網站）",
    "hoursEn": "24/7 (website)"
  },
  {
    "itemId": "health-sa-health",
    "nameZh": "SA Health（一般健康資訊）",
    "nameEn": "SA Health",
    "categoryId": "health",
    "states": "SA",
    "phone": "",
    "website": "https://www.sahealth.sa.gov.au",
    "actionType": "link",
    "descZh": "南澳健康資訊入口（醫療服務, 公共健康資訊, 指引）。",
    "descEn": "South Australia health information and services.",
    "rank": 55,
    "enabled": true,
    "hoursZh": "24 小時（網站）",
    "hoursEn": "24/7 (website)"
  },
  {
    "itemId": "health-wa-health",
    "nameZh": "WA Health（一般健康資訊）",
    "nameEn": "WA Health",
    "categoryId": "health",
    "states": "WA",
    "phone": "",
    "website": "https://www.healthywa.wa.gov.au",
    "actionType": "link",
    "descZh": "西澳健康資訊入口（醫療服務, 公共健康資訊, 指引）。",
    "descEn": "Western Australia health information and services.",
    "rank": 56,
    "enabled": true,
    "hoursZh": "24 小時（網站）",
    "hoursEn": "24/7 (website)"
  },
  {
    "itemId": "health-tas-health",
    "nameZh": "TAS Health（一般健康資訊）",
    "nameEn": "Tasmanian Department of Health",
    "categoryId": "health",
    "states": "TAS",
    "phone": "",
    "website": "https://www.health.tas.gov.au",
    "actionType": "link",
    "descZh": "塔州健康資訊入口（醫療服務, 公共健康資訊, 指引）。",
    "descEn": "Tasmania health information and services.",
    "rank": 57,
    "enabled": true,
    "hoursZh": "24 小時（網站）",
    "hoursEn": "24/7 (website)"
  },
  {
    "itemId": "mental-health-headtohealth",
    "nameZh": "Head to Health（心理健康服務搜尋）",
    "nameEn": "Head to Health",
    "categoryId": "mental-health",
    "states": "NSW, VIC, QLD, SA, NT, TAS, WA, ACT",
    "phone": "",
    "website": "https://www.headtohealth.gov.au",
    "actionType": "link",
    "descZh": "全澳心理健康服務搜尋與導航, 幫你搵附近支援。",
    "descEn": "Find mental health support services and resources near you.",
    "rank": 58,
    "enabled": true,
    "hoursZh": "24 小時（網站）",
    "hoursEn": "24/7 (website)"
  },
  {
    "itemId": "mental-health-mindspot",
    "nameZh": "MindSpot（網上心理支援課程）",
    "nameEn": "MindSpot Clinic",
    "categoryId": "mental-health",
    "states": "NSW, VIC, QLD, SA, NT, TAS, WA, ACT",
    "phone": "",
    "website": "https://www.mindspot.org.au",
    "actionType": "link",
    "descZh": "提供網上心理評估及課程（焦慮, 抑鬱等）, 適合想低門檻開始求助的人。",
    "descEn": "Online mental health assessment and courses (anxiety, depression etc.).",
    "rank": 59,
    "enabled": true,
    "hoursZh": "24 小時（網站）",
    "hoursEn": "24/7 (website)"
  },
  {
    "itemId": "mental-health-emergencyplus",
    "nameZh": "Emergency+ App（緊急定位求助）",
    "nameEn": "Emergency+ App",
    "categoryId": "mental-health",
    "states": "NSW, VIC, QLD, SA, NT, TAS, WA, ACT",
    "phone": "",
    "website": "https://www.triplezero.gov.au/emergency-plus",
    "actionType": "link",
    "descZh": "官方緊急求助 App, 可顯示定位及緊急資訊, 協助打 000。",
    "descEn": "Official app to help contact 000 with location support.",
    "rank": 60,
    "enabled": true,
    "hoursZh": "24 小時（網站）",
    "hoursEn": "24/7 (website)"
  },
  {
    "itemId": "financial-moneysmart",
    "nameZh": "Moneysmart（理財與防騙資訊）",
    "nameEn": "MoneySmart (ASIC)",
    "categoryId": "financial",
    "states": "NSW, VIC, QLD, SA, NT, TAS, WA, ACT",
    "phone": "",
    "website": "https://moneysmart.gov.au",
    "actionType": "link",
    "descZh": "官方理財資訊, 預算工具, 貸款與投資風險教育。",
    "descEn": "Government-backed money guidance and tools.",
    "rank": 61,
    "enabled": true,
    "hoursZh": "24 小時（網站）",
    "hoursEn": "24/7 (website)"
  },
  {
    "itemId": "financial-energy-bill-help",
    "nameZh": "能源帳單援助資訊（各州）",
    "nameEn": "Energy bill help (state programs)",
    "categoryId": "financial",
    "states": "NSW, VIC, QLD, SA, NT, TAS, WA, ACT",
    "phone": "",
    "website": "https://www.energy.gov.au/rebates",
    "actionType": "link",
    "descZh": "各州能源補貼／折扣資訊入口（按州份查）。",
    "descEn": "Energy rebates and bill relief information (by state).",
    "rank": 62,
    "enabled": true,
    "hoursZh": "24 小時（網站）",
    "hoursEn": "24/7 (website)"
  },
  {
    "itemId": "financial-centrelink-payment",
    "nameZh": "Payments & Services（福利資訊）",
    "nameEn": "Services Australia Payments & Services",
    "categoryId": "financial",
    "states": "NSW, VIC, QLD, SA, NT, TAS, WA, ACT",
    "phone": "",
    "website": "https://www.servicesaustralia.gov.au/payments-and-services",
    "actionType": "link",
    "descZh": "Centrelink/家庭補助/失業補助等資訊與申請指引入口。",
    "descEn": "Information on Centrelink payments and services.",
    "rank": 63,
    "enabled": true,
    "hoursZh": "24 小時（網站）",
    "hoursEn": "24/7 (website)"
  },
  {
    "itemId": "legal-communitylegal",
    "nameZh": "全澳社區法律中心搜尋",
    "nameEn": "Community Legal Centres Australia",
    "categoryId": "legal",
    "states": "NSW, VIC, QLD, SA, NT, TAS, WA, ACT",
    "phone": "",
    "website": "https://clcs.org.au",
    "actionType": "link",
    "descZh": "幫你搵附近社區法律中心（免費或低費用法律意見）。",
    "descEn": "Find community legal centres across Australia.",
    "rank": 64,
    "enabled": true,
    "hoursZh": "24 小時（網站）",
    "hoursEn": "24/7 (website)"
  },
  {
    "itemId": "legal-legalaid-sa",
    "nameZh": "Legal Aid SA（南澳）",
    "nameEn": "Legal Aid South Australia",
    "categoryId": "legal",
    "states": "SA",
    "phone": "1300 366 424",
    "website": "https://www.lsc.sa.gov.au",
    "actionType": "phone",
    "descZh": "南澳法律援助資訊與服務入口。",
    "descEn": "Legal aid information and services in South Australia.",
    "rank": 65,
    "enabled": true,
    "hoursZh": "辦公時間（以官網為準）",
    "hoursEn": "Business hours (see website)"
  },
  {
    "itemId": "legal-legalaid-tas",
    "nameZh": "Legal Aid Tasmania（塔州）",
    "nameEn": "Legal Aid Tasmania",
    "categoryId": "legal",
    "states": "TAS",
    "phone": "1300 366 611",
    "website": "https://www.legalaid.tas.gov.au",
    "actionType": "phone",
    "descZh": "塔州法律援助資訊與服務入口。",
    "descEn": "Legal aid information and services in Tasmania.",
    "rank": 66,
    "enabled": true,
    "hoursZh": "辦公時間（以官網為準）",
    "hoursEn": "Business hours (see website)"
  },
  {
    "itemId": "legal-legalaid-nt",
    "nameZh": "Legal Aid NT（北領地）",
    "nameEn": "Legal Aid Northern Territory",
    "categoryId": "legal",
    "states": "NT",
    "phone": "1800 019 343",
    "website": "https://www.legalaidnt.org.au",
    "actionType": "phone",
    "descZh": "北領地法律援助資訊與服務入口。",
    "descEn": "Legal aid information and services in the Northern Territory.",
    "rank": 67,
    "enabled": true,
    "hoursZh": "辦公時間（以官網為準）",
    "hoursEn": "Business hours (see website)"
  },
  {
    "itemId": "legal-legalaid-wa",
    "nameZh": "Legal Aid WA（西澳）",
    "nameEn": "Legal Aid WA",
    "categoryId": "legal",
    "states": "WA",
    "phone": "1300 650 579",
    "website": "https://www.legalaid.wa.gov.au",
    "actionType": "phone",
    "descZh": "西澳法律援助資訊與服務入口。",
    "descEn": "Legal aid information and services in Western Australia.",
    "rank": 68,
    "enabled": true,
    "hoursZh": "辦公時間（以官網為準）",
    "hoursEn": "Business hours (see website)"
  },
  {
    "itemId": "rent-tenants-sa",
    "nameZh": "SA 租客支援（租務資訊入口）",
    "nameEn": "RentRight SA / Tenant support (SA)",
    "categoryId": "rent",
    "states": "SA",
    "phone": "",
    "website": "https://www.syc.net.au/services/housing-homelessness-support/rentright-sa",
    "actionType": "link",
    "descZh": "南澳租客權益資訊與支援入口。",
    "descEn": "Tenant rights information and support in SA.",
    "rank": 69,
    "enabled": true,
    "hoursZh": "24 小時（網站）",
    "hoursEn": "24/7 (website)"
  },
  {
    "itemId": "rent-tenants-tas",
    "nameZh": "TAS 租務／租客資訊入口",
    "nameEn": "Tasmania tenant information",
    "categoryId": "rent",
    "states": "TAS",
    "phone": "",
    "website": "https://www.cbos.tas.gov.au/topics/housing/renting",
    "actionType": "link",
    "descZh": "塔州租務與租客權益資訊入口。",
    "descEn": "Tasmania renting information and tenant rights.",
    "rank": 70,
    "enabled": true,
    "hoursZh": "24 小時（網站）",
    "hoursEn": "24/7 (website)"
  },
  {
    "itemId": "rent-tenants-act",
    "nameZh": "ACT 租務資訊入口 (Residential Tenancies)",
    "nameEn": "ACT renting information",
    "categoryId": "rent",
    "states": "ACT",
    "phone": "",
    "website": "https://www.legislation.act.gov.au",
    "actionType": "link",
    "descZh": "ACT 租務法例與資訊入口（如需要可再配對本地租客支援機構）。",
    "descEn": "ACT tenancy legislation and information entry point.",
    "rank": 71,
    "enabled": true,
    "hoursZh": "24 小時（網站）",
    "hoursEn": "24/7 (website)"
  },
  {
    "itemId": "support-homeless-askizzy-housing",
    "nameZh": "無家可歸／住宿支援搜尋",
    "nameEn": "Ask Izzy (Housing)",
    "categoryId": "support",
    "states": "NSW, VIC, QLD, SA, NT, TAS, WA, ACT",
    "phone": "",
    "website": "https://askizzy.org.au/housing",
    "actionType": "link",
    "descZh": "透過 Ask Izzy 搜尋附近緊急住宿、無家可歸支援與相關服務。",
    "descEn": "Find homelessness and housing support services near you via Ask Izzy.",
    "rank": 72,
    "enabled": true,
    "hoursZh": "24 小時（網站）",
    "hoursEn": "24/7 (website)"
  },
  {
    "itemId": "support-food-relief",
    "nameZh": "食物援助／食物銀行搜尋",
    "nameEn": "Food relief finder",
    "categoryId": "support",
    "states": "NSW, VIC, QLD, SA, NT, TAS, WA, ACT",
    "phone": "",
    "website": "https://askizzy.org.au/food",
    "actionType": "link",
    "descZh": "透過 Ask Izzy 搜尋附近食物援助、食物銀行及免費餐點等資源。",
    "descEn": "Find food relief services such as food banks and free meals via Ask Izzy.",
    "rank": 73,
    "enabled": true,
    "hoursZh": "24 小時（網站）",
    "hoursEn": "24/7 (website)"
  },
  {
    "itemId": "support-salvos-housing",
    "nameZh": "救世軍住宿/危機支援入口",
    "nameEn": "Salvation Army (Housing & Homelessness)",
    "categoryId": "support",
    "states": "NSW, VIC, QLD, SA, NT, TAS, WA, ACT",
    "phone": "",
    "website": "https://www.salvationarmy.org.au/need-help/homelessness",
    "actionType": "link",
    "descZh": "救世軍無家可歸及住宿支援資訊入口（按地區查）。",
    "descEn": "Housing and homelessness support information (by location).",
    "rank": 74,
    "enabled": true,
    "hoursZh": "24 小時（網站）",
    "hoursEn": "24/7 (website)"
  },
  {
    "itemId": "support-redcross-migration",
    "nameZh": "紅十字移民／臨時簽證支援",
    "nameEn": "Red Cross Migration Support",
    "categoryId": "support",
    "states": "NSW, VIC, QLD, SA, NT, TAS, WA, ACT",
    "phone": "",
    "website": "https://www.redcross.org.au/migration",
    "actionType": "link",
    "descZh": "澳洲紅十字會為移民及臨時簽證人士提供支援資訊與服務入口（按需要轉介）。",
    "descEn": "Support and services for migrants and people on temporary visas via the Australian Red Cross.",
    "rank": 75,
    "enabled": true,
    "hoursZh": "24 小時（網站）",
    "hoursEn": "24/7 (website)"
  },
  {
    "itemId": "support-multicultural-services",
    "nameZh": "多元文化服務搜尋",
    "nameEn": "Multicultural Services Finder",
    "categoryId": "support",
    "states": "NSW, VIC, QLD, SA, NT, TAS, WA, ACT",
    "phone": "",
    "website": "https://www.multicultural.gov.au",
    "actionType": "link",
    "descZh": "多元文化資源與服務資訊入口（可按州份或機構查閱）。",
    "descEn": "Multicultural resources and services information, searchable by state or organisation.",
    "rank": 76,
    "enabled": true,
    "hoursZh": "24/7（網站）",
    "hoursEn": "24/7 (website)"
  },
  {
    "itemId": "support-parenting-raisingchildren",
    "nameZh": "Raising Children（育兒資訊）",
    "nameEn": "Raising Children Network",
    "categoryId": "parenting",
    "states": "NSW, VIC, QLD, SA, NT, TAS, WA, ACT",
    "phone": "",
    "website": "https://raisingchildren.net.au",
    "actionType": "link",
    "descZh": "澳洲權威育兒資訊網站（睡眠, 情緒, 學校, 發展等）。",
    "descEn": "Trusted Australian parenting information (sleep, development, wellbeing).",
    "rank": 77,
    "enabled": true,
    "hoursZh": "24 小時（網站）",
    "hoursEn": "24/7 (website)"
  },
  {
    "itemId": "support-familylaw-info",
    "nameZh": "家庭法資訊入口",
    "nameEn": "Family Law information",
    "categoryId": "legal",
    "states": "NSW, VIC, QLD, SA, NT, TAS, WA, ACT",
    "phone": "",
    "website": "https://www.familyrelationships.gov.au",
    "actionType": "link",
    "descZh": "分居, 共同養育, 調解與家庭關係資源資訊入口。",
    "descEn": "Information on separation, parenting and family relationship supports.",
    "rank": 78,
    "enabled": true,
    "hoursZh": "24 小時（網站）",
    "hoursEn": "24/7 (website)"
  },
  {
    "itemId": "health-dementia-helpline",
    "nameZh": "失智症支援熱線",
    "nameEn": "Dementia Australia Helpline",
    "categoryId": "health",
    "states": "NSW, VIC, QLD, SA, NT, TAS, WA, ACT",
    "phone": "1800 100 500",
    "website": "https://www.dementia.org.au",
    "actionType": "phone",
    "descZh": "失智症患者及照顧者支援與資訊。",
    "descEn": "Support and information for people living with dementia and carers.",
    "rank": 79,
    "enabled": true,
    "hoursZh": "以官網公布為準",
    "hoursEn": "See website for hours"
  },
  {
    "itemId": "health-cancer-council",
    "nameZh": "Cancer Council 支援熱線",
    "nameEn": "Cancer Council Helpline",
    "categoryId": "health",
    "states": "NSW, VIC, QLD, SA, NT, TAS, WA, ACT",
    "phone": "13 11 20",
    "website": "https://www.cancer.org.au",
    "actionType": "phone",
    "descZh": "癌症資訊與支援（病人, 家屬, 照顧者）。",
    "descEn": "Cancer information and support for patients, families and carers.",
    "rank": 80,
    "enabled": true,
    "hoursZh": "以各州服務時間為準",
    "hoursEn": "Varies by state (see website)"
  },
  {
    "itemId": "health-heart-foundation",
    "nameZh": "心臟健康資訊入口",
    "nameEn": "Heart Foundation",
    "categoryId": "health",
    "states": "NSW, VIC, QLD, SA, NT, TAS, WA, ACT",
    "phone": "",
    "website": "https://www.heartfoundation.org.au",
    "actionType": "link",
    "descZh": "心臟健康資訊, 風險評估及生活建議。",
    "descEn": "Heart health information and resources.",
    "rank": 81,
    "enabled": true,
    "hoursZh": "24 小時（網站）",
    "hoursEn": "24/7 (website)"
  },
  {
    "itemId": "support-roadside-aami",
    "nameZh": "道路救援（保險公司產品示例）",
    "nameEn": "Roadside assistance (example)",
    "categoryId": "roadside",
    "states": "",
    "phone": "",
    "website": "https://www.aami.com.au",
    "actionType": "link",
    "descZh": "道路救援一般需要會員/保險附加服務；此為示例入口, 實際以你所買服務為準。",
    "descEn": "Roadside assistance usually requires membership or insurance add-on; example entry point.",
    "rank": 82,
    "enabled": true,
    "hoursZh": "24 小時（網站）",
    "hoursEn": "24/7 (website)"
  },
  {
    "itemId": "transport-live-traffic-nsw",
    "nameZh": "NSW Live Traffic（路況）",
    "nameEn": "Live Traffic NSW",
    "categoryId": "transport",
    "states": "NSW",
    "phone": "",
    "website": "https://www.livetraffic.com",
    "actionType": "link",
    "descZh": "新州即時路況, 封路及事故資訊。",
    "descEn": "NSW live traffic, incidents and road closures.",
    "rank": 83,
    "enabled": true,
    "hoursZh": "24 小時（網站）",
    "hoursEn": "24/7 (website)"
  },
  {
    "itemId": "transport-vic-traffic",
    "nameZh": "VIC 道路與交通資訊",
    "nameEn": "VicTraffic",
    "categoryId": "transport",
    "states": "VIC",
    "phone": "",
    "website": "https://traffic.vicroads.vic.gov.au",
    "actionType": "link",
    "descZh": "維州即時路況, 封路及事故資訊。",
    "descEn": "Victoria traffic conditions, incidents and roadworks.",
    "rank": 84,
    "enabled": true,
    "hoursZh": "24 小時（網站）",
    "hoursEn": "24/7 (website)"
  },
  {
    "itemId": "transport-qld-traffic",
    "nameZh": "QLD 交通與路況資訊",
    "nameEn": "QLD Traffic",
    "categoryId": "transport",
    "states": "QLD",
    "phone": "",
    "website": "https://qldtraffic.qld.gov.au",
    "actionType": "link",
    "descZh": "昆州即時路況, 封路及事故資訊。",
    "descEn": "Queensland traffic conditions and road closures.",
    "rank": 85,
    "enabled": true,
    "hoursZh": "24 小時（網站）",
    "hoursEn": "24/7 (website)"
  },
  {
    "itemId": "transport-sa-traffic",
    "nameZh": "SA Traffic SA（路況）",
    "nameEn": "Traffic SA",
    "categoryId": "transport",
    "states": "SA",
    "phone": "",
    "website": "https://traffic.sa.gov.au",
    "actionType": "link",
    "descZh": "南澳即時路況, 封路及事故資訊。",
    "descEn": "South Australia traffic conditions and alerts.",
    "rank": 86,
    "enabled": true,
    "hoursZh": "24 小時（網站）",
    "hoursEn": "24/7 (website)"
  },
  {
    "itemId": "transport-wa-traffic",
    "nameZh": "WA Main Roads（路況）",
    "nameEn": "Main Roads WA",
    "categoryId": "transport",
    "states": "WA",
    "phone": "",
    "website": "https://www.mainroads.wa.gov.au",
    "actionType": "link",
    "descZh": "西澳道路資訊與路況更新入口。",
    "descEn": "WA road conditions and updates.",
    "rank": 87,
    "enabled": true,
    "hoursZh": "24 小時（網站）",
    "hoursEn": "24/7 (website)"
  },
  {
    "itemId": "disaster-bom-warnings",
    "nameZh": "氣象局警報（BOM）",
    "nameEn": "Bureau of Meteorology Warnings",
    "categoryId": "disaster",
    "states": "NSW, VIC, QLD, SA, NT, TAS, WA, ACT",
    "phone": "",
    "website": "https://www.bom.gov.au/australia/warnings",
    "actionType": "link",
    "descZh": "官方天氣警報（暴雨, 火險天氣等）。",
    "descEn": "Official weather warnings (storms, floods, fire weather).",
    "rank": 88,
    "enabled": true,
    "hoursZh": "24 小時（網站）",
    "hoursEn": "24/7 (website)"
  },
  {
    "itemId": "disaster-vic-emergency-app",
    "nameZh": "VicEmergency App（維州緊急資訊）",
    "nameEn": "VicEmergency App",
    "categoryId": "disaster",
    "states": "VIC",
    "phone": "",
    "website": "https://www.emergency.vic.gov.au",
    "actionType": "link",
    "descZh": "維州山火/風暴/水災等緊急資訊與警報入口（App/網站）。",
    "descEn": "Victoria emergency information and alerts.",
    "rank": 89,
    "enabled": true,
    "hoursZh": "24 小時（網站）",
    "hoursEn": "24/7 (website)"
  },
  {
    "itemId": "disaster-nsw-fires-nearme",
    "nameZh": "NSW RFS Fires Near Me",
    "nameEn": "NSW RFS Fires Near Me",
    "categoryId": "disaster",
    "states": "NSW",
    "phone": "",
    "website": "https://www.rfs.nsw.gov.au/fire-information/fires-near-me",
    "actionType": "link",
    "descZh": "新州山火資訊與附近火警地圖（亦有 App）。",
    "descEn": "NSW bushfire information and nearby incidents map.",
    "rank": 90,
    "enabled": true,
    "hoursZh": "24 小時（網站）",
    "hoursEn": "24/7 (website)"
  },
  {
    "itemId": "disaster-qld-disaster-dashboard",
    "nameZh": "QLD Disaster Dashboard",
    "nameEn": "Queensland Disaster Dashboard",
    "categoryId": "disaster",
    "states": "QLD",
    "phone": "",
    "website": "https://disaster.qld.gov.au",
    "actionType": "link",
    "descZh": "昆州災害資訊總覽（洪水, 風暴, 警報, 支援）。",
    "descEn": "Queensland disaster information dashboard.",
    "rank": 91,
    "enabled": true,
    "hoursZh": "24 小時（網站）",
    "hoursEn": "24/7 (website)"
  },
  {
    "itemId": "disaster-wa-emergency",
    "nameZh": "WA Emergency WA",
    "nameEn": "Emergency WA",
    "categoryId": "disaster",
    "states": "WA",
    "phone": "",
    "website": "https://www.emergency.wa.gov.au",
    "actionType": "link",
    "descZh": "西澳緊急事件與警報資訊入口。",
    "descEn": "Western Australia emergency incidents and warnings.",
    "rank": 92,
    "enabled": true,
    "hoursZh": "24 小時（網站）",
    "hoursEn": "24/7 (website)"
  },
  {
    "itemId": "support-consumer-complaints",
    "nameZh": "消費者投訴/退款指引（各州）",
    "nameEn": "Consumer rights and complaints",
    "categoryId": "support",
    "states": "NSW, VIC, QLD, SA, NT, TAS, WA, ACT",
    "phone": "",
    "website": "https://www.accc.gov.au/consumers",
    "actionType": "link",
    "descZh": "消費者權益, 退款/保養, 投訴指引入口（ACCC）。",
    "descEn": "Consumer rights and complaint guidance (ACCC).",
    "rank": 93,
    "enabled": true,
    "hoursZh": "24 小時（網站）",
    "hoursEn": "24/7 (website)"
  },
  {
    "itemId": "support-complaints-ombudsman",
    "nameZh": "聯邦申訴專員（政府部門投訴）",
    "nameEn": "Commonwealth Ombudsman",
    "categoryId": "support",
    "states": "NSW, VIC, QLD, SA, NT, TAS, WA, ACT",
    "phone": "",
    "website": "https://www.ombudsman.gov.au",
    "actionType": "link",
    "descZh": "對聯邦政府部門服務有投訴, 可參考申訴程序與入口。",
    "descEn": "Help with complaints about Australian Government agencies.",
    "rank": 94,
    "enabled": true,
    "hoursZh": "24 小時（網站）",
    "hoursEn": "24/7 (website)"
  },
  {
    "itemId": "mental-mensline",
    "nameZh": "MensLine Australia（男士支援）",
    "nameEn": "MensLine Australia",
    "categoryId": "mental-health",
    "states": "NSW, VIC, QLD, SA, NT, WA, TAS, ACT",
    "phone": "1300 789 978",
    "website": "https://mensline.org.au",
    "actionType": "phone",
    "descZh": "為男士提供 24 小時電話支援（情緒、關係、壓力、憤怒管理、育兒等），亦有網上聊天。",
    "descEn": "24/7 support for men with mental health, relationships, stress and more; online chat available.",
    "rank": 95,
    "enabled": true,
    "hoursZh": "24 小時 / 7 日",
    "hoursEn": "24/7"
  },
  {
    "itemId": "parenting-aba",
    "nameZh": "母乳餵哺支援熱線",
    "nameEn": "ABA Breastfeeding Helpline",
    "categoryId": "parenting",
    "states": "NSW, VIC, QLD, SA, NT, WA, TAS, ACT",
    "phone": "1800 686 268",
    "website": "https://www.breastfeeding.asn.au",
    "actionType": "phone",
    "descZh": "澳洲母乳會支援熱線（餵哺、泵奶、脹痛、上奶等），亦有 LiveChat。",
    "descEn": "Breastfeeding support and advice; LiveChat available.",
    "rank": 96,
    "enabled": true,
    "hoursZh": "24 小時 / 7 日（以官網為準）",
    "hoursEn": "24/7 (see website)"
  },
  {
    "itemId": "mental-mates",
    "nameZh": "MATES in Construction（建築/礦業危機支援）",
    "nameEn": "MATES in Construction",
    "categoryId": "mental-health",
    "states": "NSW, VIC, QLD, SA, NT, WA, TAS, ACT",
    "phone": "1300 642 111",
    "website": "https://mates.org.au",
    "actionType": "phone",
    "descZh": "為建築、礦業及能源行業人士提供危機支援（情緒及自殺預防）。",
    "descEn": "Crisis support for people in construction, mining and energy industries.",
    "rank": 97,
    "enabled": true,
    "hoursZh": "24 小時 / 7 日（以官網為準）",
    "hoursEn": "24/7 (see website)"
  },
  {
    "itemId": "mental-standby",
    "nameZh": "StandBy（自殺後支援）",
    "nameEn": "StandBy Support After Suicide",
    "categoryId": "mental-health",
    "states": "NSW, VIC, QLD, SA, NT, WA, TAS, ACT",
    "phone": "1300 727 247",
    "website": "https://standbysupport.com.au",
    "actionType": "phone",
    "descZh": "為自殺失去親友的人提供支援與跟進服務，亦支援專業人士。",
    "descEn": "Support for people bereaved by suicide and those supporting them.",
    "rank": 98,
    "enabled": true,
    "hoursZh": "24 小時 / 7 日（以官網為準）",
    "hoursEn": "24/7 (see website)"
  },
  {
    "itemId": "mental-griefline",
    "nameZh": "Griefline（哀傷支援）",
    "nameEn": "Griefline",
    "categoryId": "mental-health",
    "states": "NSW, VIC, QLD, SA, NT, WA, TAS, ACT",
    "phone": "1300 845 745",
    "website": "https://griefline.org.au",
    "actionType": "phone",
    "descZh": "為經歷哀傷、失落或孤單的人提供電話支援及資源。",
    "descEn": "Telephone support for grief, loss and loneliness.",
    "rank": 99,
    "enabled": true,
    "hoursZh": "以官網為準",
    "hoursEn": "See website"
  },
  {
    "itemId": "support-familydrug",
    "nameZh": "Family Drug Support（家人支援）",
    "nameEn": "Family Drug Support",
    "categoryId": "support",
    "states": "NSW, VIC, QLD, SA, NT, WA, TAS, ACT",
    "phone": "1300 368 186",
    "website": "https://www.fds.org.au",
    "actionType": "phone",
    "descZh": "當家人/朋友受酒精或藥物影響，你需要即時意見、資源或情緒支援，可致電（24/7）。",
    "descEn": "24/7 support, counselling and information for families/friends of someone using alcohol or drugs.",
    "rank": 100,
    "enabled": true,
    "hoursZh": "24 小時 / 7 日",
    "hoursEn": "24/7"
  },
  {
    "itemId": "parenting-karitane",
    "nameZh": "Karitane Careline（NSW 育兒支援）",
    "nameEn": "Karitane Careline",
    "categoryId": "parenting",
    "states": "NSW",
    "phone": "1300 227 464",
    "website": "https://www.karitane.com.au",
    "actionType": "phone",
    "descZh": "0–5 歲育兒諮詢與支援（睡眠、餵食、情緒、教養）。",
    "descEn": "Parenting support for families with young children (sleep, feeding, settling).",
    "rank": 101,
    "enabled": true,
    "hoursZh": "以官網為準",
    "hoursEn": "See website"
  },
  {
    "itemId": "parenting-ngala",
    "nameZh": "Ngala Parenting Line（WA）",
    "nameEn": "Ngala Parenting Line",
    "categoryId": "parenting",
    "states": "WA",
    "phone": "08 9368 9368",
    "website": "https://www.ngala.com.au",
    "actionType": "phone",
    "descZh": "西澳育兒支援（親職壓力、幼兒行為、睡眠等）。",
    "descEn": "Parenting support line in WA (sleep, behaviour, family wellbeing).",
    "rank": 102,
    "enabled": true,
    "hoursZh": "以官網為準",
    "hoursEn": "See website"
  },
  {
    "itemId": "parenting-mchline-vic",
    "nameZh": "母嬰健康熱線（VIC）",
    "nameEn": "Maternal and Child Health Line (VIC)",
    "categoryId": "parenting",
    "states": "VIC",
    "phone": "13 22 29",
    "website": "https://www.betterhealth.vic.gov.au",
    "actionType": "phone",
    "descZh": "母嬰及育兒健康資訊（由母嬰健康護士提供）。",
    "descEn": "Advice on maternal and child health and parenting from nurses.",
    "rank": 103,
    "enabled": true,
    "hoursZh": "24 小時 / 7 日",
    "hoursEn": "24/7"
  },
  {
    "itemId": "support-link2home-nsw",
    "nameZh": "Link2home（NSW 住宿/無家可歸）",
    "nameEn": "Link2home (NSW)",
    "categoryId": "support",
    "states": "NSW",
    "phone": "1800 152 152",
    "website": "https://www.facs.nsw.gov.au/housing/help/ways/are-you-homeless",
    "actionType": "phone",
    "descZh": "新州緊急住宿及無家可歸支援轉介（24/7）。",
    "descEn": "NSW homelessness information and referral service (24/7).",
    "rank": 104,
    "enabled": true,
    "hoursZh": "24 小時 / 7 日",
    "hoursEn": "24/7"
  },
  {
    "itemId": "support-child-protection-nsw",
    "nameZh": "NSW Child Protection Helpline（兒童保護）",
    "nameEn": "NSW Child Protection Helpline",
    "categoryId": "support",
    "states": "NSW",
    "phone": "13 21 11",
    "website": "https://www.facs.nsw.gov.au/families/Protecting-kids/reporting-child-at-risk",
    "actionType": "phone",
    "descZh": "如擔心兒童/青少年安全或懷疑虐待/疏忽，可致電作出通報（24/7）。",
    "descEn": "Report concerns about a child or young person at risk (24/7).",
    "rank": 105,
    "enabled": true,
    "hoursZh": "24 小時 / 7 日",
    "hoursEn": "24/7"
  },
  {
    "itemId": "support-sexual-violence-nsw",
    "nameZh": "NSW Sexual Violence Helpline（性暴力支援）",
    "nameEn": "NSW Sexual Violence Helpline",
    "categoryId": "support",
    "states": "NSW",
    "phone": "1800 424 017",
    "website": "https://www.fullstop.org.au",
    "actionType": "phone",
    "descZh": "提供 24/7 危機輔導與支援（由 Full Stop Australia 提供）。",
    "descEn": "24/7 counselling and support for sexual violence survivors and supporters.",
    "rank": 106,
    "enabled": true,
    "hoursZh": "24 小時 / 7 日",
    "hoursEn": "24/7"
  },
  {
    "itemId": "support-in-touch",
    "nameZh": "InTouch（多元文化家暴支援）",
    "nameEn": "InTouch Multicultural Centre Against Family Violence",
    "categoryId": "support",
    "states": "NSW, VIC, QLD, SA, NT, WA, TAS, ACT",
    "phone": "1800 755 988",
    "website": "https://intouch.org.au",
    "actionType": "phone",
    "descZh": "多元文化社群的家暴支援與轉介（非即時危機；危險請致電 000）。",
    "descEn": "Family violence support for multicultural communities (not an emergency service).",
    "rank": 107,
    "enabled": true,
    "hoursZh": "星期一至五 9am–5pm（以官網為準）",
    "hoursEn": "Mon–Fri 9am–5pm (see website)"
  },
  {
    "itemId": "mental-qlife",
    "nameZh": "QLife（LGBTIQ+ 同行支援）",
    "nameEn": "QLife",
    "categoryId": "mental-health",
    "states": "NSW, VIC, QLD, SA, NT, WA, TAS, ACT",
    "phone": "1800 184 527",
    "website": "https://qlife.org.au",
    "actionType": "phone",
    "descZh": "LGBTIQ+ 同行傾訴與轉介服務（電話/網上聊天；時間以官網為準）。",
    "descEn": "Peer support and referral for LGBTIQ+ people (hours vary).",
    "rank": 108,
    "enabled": true,
    "hoursZh": "以官網為準",
    "hoursEn": "See website"
  },
  {
    "itemId": "support-national-aod-hotline",
    "nameZh": "National Alcohol & Other Drug Hotline",
    "nameEn": "National Alcohol and Other Drug Hotline",
    "categoryId": "support",
    "states": "NSW, VIC, QLD, SA, NT, WA, TAS, ACT",
    "phone": "1800 250 015",
    "website": "https://www.health.gov.au/contacts/national-alcohol-and-other-drug-hotline",
    "actionType": "phone",
    "descZh": "酒精及其他藥物相關支援與轉介（全澳）。",
    "descEn": "National alcohol and other drug support and referral line.",
    "rank": 109,
    "enabled": true,
    "hoursZh": "以官網為準",
    "hoursEn": "See website"
  },
  {
    "itemId": "legal-ombudsman-state",
    "nameZh": "州政府申訴/投訴入口（按州）",
    "nameEn": "State Ombudsman (find your state)",
    "categoryId": "legal",
    "states": "NSW, VIC, QLD, SA, NT, WA, TAS, ACT",
    "phone": "",
    "website": "https://www.ombudsman.gov.au/How-we-can-help/complaints-australian-government-agencies/state-and-territory-ombudsman",
    "actionType": "link",
    "descZh": "如需就州政府部門服務作出投訴，可先用此頁找回你所在州的 Ombudsman。",
    "descEn": "Find your state/territory ombudsman to complain about government services.",
    "rank": 110,
    "enabled": true,
    "hoursZh": "24 小時（網站）",
    "hoursEn": "24/7 (website)"
  },
  {
    "itemId": "support-transport-helpline-tas",
    "nameZh": "TAS 交通/道路緊急（州道路資訊）",
    "nameEn": "TAS State Road Emergencies / Info",
    "categoryId": "transport",
    "states": "TAS",
    "phone": "1300 139 933",
    "website": "https://www.transport.tas.gov.au",
    "actionType": "phone",
    "descZh": "塔州道路狀況與緊急資訊（封路/危險路段等；以州政府更新為準）。",
    "descEn": "Tasmania road status and incident information (see official updates).",
    "rank": 111,
    "enabled": true,
    "hoursZh": "24 小時（以官網為準）",
    "hoursEn": "24/7 (see website)"
  },
  {
    "itemId": "support-power-outage-tas",
    "nameZh": "TAS 電力故障/停電",
    "nameEn": "TasNetworks Power Outages",
    "categoryId": "support",
    "states": "TAS",
    "phone": "132 004",
    "website": "https://www.tasnetworks.com.au",
    "actionType": "phone",
    "descZh": "塔州停電/電線墮下等危險情況回報。",
    "descEn": "Report power outages or fallen powerlines in Tasmania.",
    "rank": 112,
    "enabled": true,
    "hoursZh": "24 小時（以官網為準）",
    "hoursEn": "24/7 (see website)"
  },
  {
    "itemId": "support-water-emergency-tas",
    "nameZh": "TAS 爆水管/污水（TasWater）",
    "nameEn": "TasWater Faults",
    "categoryId": "support",
    "states": "TAS",
    "phone": "13 6992",
    "website": "https://www.taswater.com.au",
    "actionType": "phone",
    "descZh": "塔州爆水管、污水倒灌或供水故障回報。",
    "descEn": "Report water and sewer faults in Tasmania.",
    "rank": 113,
    "enabled": true,
    "hoursZh": "24 小時（以官網為準）",
    "hoursEn": "24/7 (see website)"
  },
  {
    "itemId": "support-gas-emergency-tas",
    "nameZh": "TAS 天然氣緊急（TasGas）",
    "nameEn": "TasGas Emergency",
    "categoryId": "support",
    "states": "TAS",
    "phone": "180 2111",
    "website": "https://www.tasgasnetworks.com.au",
    "actionType": "phone",
    "descZh": "塔州煤氣洩漏或天然氣緊急事故回報。如聞到強烈氣味或情況危及生命，先致電 000。",
    "descEn": "Gas leak and emergency reporting in Tasmania. Call 000 first if life-threatening or you smell strong gas.",
    "rank": 114,
    "enabled": true,
    "hoursZh": "24 小時 / 7 日",
    "hoursEn": "24/7"
  },
  {
    "itemId": "support-emergency-alerts",
    "nameZh": "Emergency Alert（緊急警報系統資訊）",
    "nameEn": "Emergency Alert (AU)",
    "categoryId": "disaster",
    "states": "NSW, VIC, QLD, SA, NT, WA, TAS, ACT",
    "phone": "",
    "website": "https://www.emergencyalert.gov.au",
    "actionType": "link",
    "descZh": "澳洲官方緊急電話警報系統資訊（災害時會向受影響地區發出警報）。",
    "descEn": "Official info about Australia’s emergency telephone warning system.",
    "rank": 115,
    "enabled": true,
    "hoursZh": "24 小時（網站）",
    "hoursEn": "24/7 (website)"
  },
  {
    "itemId": "support-amssa",
    "nameZh": "海上緊急資訊（AMSA）",
    "nameEn": "Australian Maritime Safety Authority (AMSA)",
    "categoryId": "disaster",
    "states": "NSW, VIC, QLD, SA, NT, WA, TAS, ACT",
    "phone": "",
    "website": "https://www.amsa.gov.au",
    "actionType": "link",
    "descZh": "海上安全、救援及海事資訊入口（如遇海上緊急情況，仍以 000 或海事電台指引為先）。",
    "descEn": "Maritime safety and rescue information (call 000 if life-threatening).",
    "rank": 116,
    "enabled": true,
    "hoursZh": "24 小時（網站）",
    "hoursEn": "24/7 (website)"
  },
  {
    "itemId": "mental-act-triage",
    "nameZh": "ACT 精神健康分流（Triage）",
    "nameEn": "ACT Mental Health Triage Service",
    "categoryId": "mental-health",
    "states": "ACT",
    "phone": "1800 629 354",
    "website": "https://www.canberrahealthservices.act.gov.au/services-and-clinics/mental-health",
    "actionType": "phone",
    "descZh": "首都領地精神健康緊急支援及分流服務，適合需要即時評估或轉介公營精神健康服務。",
    "descEn": "24/7 mental health triage and crisis support service for ACT residents.",
    "rank": 117,
    "enabled": true,
    "hoursZh": "24 小時 / 7 日",
    "hoursEn": "24/7"
  },
  {
    "itemId": "mental-vic-suicideline",
    "nameZh": "VIC 自殺防治專線",
    "nameEn": "SuicideLine Victoria",
    "categoryId": "mental-health",
    "states": "VIC",
    "phone": "1300 651 251",
    "website": "https://www.suicideline.org.au",
    "actionType": "phone",
    "descZh": "維州自殺與自殘危機支援，提供即時電話輔導及支援。",
    "descEn": "Victoria phone and online counselling for suicide and self-harm crisis support.",
    "rank": 118,
    "enabled": true,
    "hoursZh": "24 小時 / 7 日",
    "hoursEn": "24/7"
  },
  {
    "itemId": "mental-qld-1300mhcall",
    "nameZh": "QLD 公營精神健康入口",
    "nameEn": "1300 MH CALL (Queensland)",
    "categoryId": "mental-health",
    "states": "QLD",
    "phone": "1300 64 22 55",
    "website": "https://www.qld.gov.au/health/mental-health/help-lines",
    "actionType": "phone",
    "descZh": "昆州公營精神健康服務入口（評估、轉介、求助）。",
    "descEn": "Access line to Queensland public mental health services (assessment, referral, support).",
    "rank": 119,
    "enabled": true,
    "hoursZh": "24 小時 / 7 日",
    "hoursEn": "24/7"
  },
  {
    "itemId": "mental-sa-triage",
    "nameZh": "SA 精神健康緊急支援",
    "nameEn": "Mental Health Triage (South Australia)",
    "categoryId": "mental-health",
    "states": "SA",
    "phone": "13 14 65",
    "website": "https://www.sahealth.sa.gov.au",
    "actionType": "phone",
    "descZh": "南澳精神健康緊急支援及分流，適合危機或急需專業建議。",
    "descEn": "Mental health triage line for advice, support and urgent assessment in SA.",
    "rank": 120,
    "enabled": true,
    "hoursZh": "24 小時 / 7 日",
    "hoursEn": "24/7"
  },
  {
    "itemId": "mental-tas-access",
    "nameZh": "TAS 精神健康支援（分流及轉介）",
    "nameEn": "Access Mental Health (Tasmania)",
    "categoryId": "mental-health",
    "states": "TAS",
    "phone": "1800 332 388",
    "website": "https://www.health.tas.gov.au",
    "actionType": "phone",
    "descZh": "塔州精神健康支援、分流及轉介（亦可提供即時電話支援）。",
    "descEn": "Tasmania mental health triage, support and referral line.",
    "rank": 121,
    "enabled": true,
    "hoursZh": "24 小時 / 7 日",
    "hoursEn": "24/7"
  },
  {
    "itemId": "mental-nt-line",
    "nameZh": "NT 精神健康專線",
    "nameEn": "Northern Territory Mental Health Line",
    "categoryId": "mental-health",
    "states": "NT",
    "phone": "1800 682 288",
    "website": "https://nt.gov.au/wellbeing/mental-health",
    "actionType": "phone",
    "descZh": "北領地精神健康危機支援及查詢專線。",
    "descEn": "24/7 hotline for mental health crisis support and enquiries in the Northern Territory.",
    "rank": 122,
    "enabled": true,
    "hoursZh": "24 小時 / 7 日",
    "hoursEn": "24/7"
  },
  {
    "itemId": "mental-wa-mherl-metro",
    "nameZh": "WA 精神健康緊急應對（Metro）",
    "nameEn": "Mental Health Emergency Response Line (Metro)",
    "categoryId": "mental-health",
    "states": "WA",
    "phone": "1300 555 788",
    "website": "https://www.healthdirect.gov.au/mental-health-emergency-response-line-mherl",
    "actionType": "phone",
    "descZh": "西澳精神健康緊急應對專線（珀斯/都會區）。",
    "descEn": "WA mental health emergency response line (Perth metro).",
    "rank": 123,
    "enabled": true,
    "hoursZh": "24 小時 / 7 日",
    "hoursEn": "24/7"
  },
  {
    "itemId": "mental-wa-mherl-peel",
    "nameZh": "WA 精神健康緊急應對（Peel）",
    "nameEn": "Mental Health Emergency Response Line (Peel)",
    "categoryId": "mental-health",
    "states": "WA",
    "phone": "1800 676 822",
    "website": "https://www.healthdirect.gov.au/mental-health-emergency-response-line-mherl",
    "actionType": "phone",
    "descZh": "西澳精神健康緊急應對專線（Peel 地區）。",
    "descEn": "WA mental health emergency response line (Peel region).",
    "rank": 124,
    "enabled": true,
    "hoursZh": "24 小時 / 7 日",
    "hoursEn": "24/7"
  },
  {
    "itemId": "mental-wa-rurallink",
    "nameZh": "WA Rurallink（偏遠地區夜間支援）",
    "nameEn": "Rurallink (WA)",
    "categoryId": "mental-health",
    "states": "WA",
    "phone": "1800 552 002",
    "website": "https://www.health.wa.gov.au",
    "actionType": "phone",
    "descZh": "西澳偏遠/鄉郊地區精神健康支援（夜間及週末等時段提供等同服務）。",
    "descEn": "Overnight/weekend mental health support service for regional and remote WA.",
    "rank": 125,
    "enabled": true,
    "hoursZh": "夜間及週末（以官網為準）",
    "hoursEn": "After-hours (see website)"
  },
  {
    "itemId": "mental-headspace-eheadspace",
    "nameZh": "eheadspace（12–25 青年支援）",
    "nameEn": "headspace (eheadspace)",
    "categoryId": "mental-health",
    "states": "NSW, VIC, QLD, SA, NT, WA, TAS, ACT",
    "phone": "1800 650 890",
    "website": "https://headspace.org.au",
    "actionType": "phone",
    "descZh": "為 12–25 歲青年及其家人朋友提供電話/網上支援（eheadspace）。",
    "descEn": "Phone/online support for young people aged 12–25 and their family/friends (eheadspace).",
    "rank": 126,
    "enabled": true,
    "hoursZh": "每日 3pm–10pm（本地時間）",
    "hoursEn": "3pm–10pm daily (local time)"
  },
  {
    "itemId": "mental-sane",
    "nameZh": "SANE（複雜心理需要支援）",
    "nameEn": "SANE Australia",
    "categoryId": "mental-health",
    "states": "NSW, VIC, QLD, SA, NT, WA, TAS, ACT",
    "phone": "1800 187 263",
    "website": "https://www.sane.org",
    "actionType": "phone",
    "descZh": "為複雜心理健康需要人士及照顧者提供資訊、支援與轉介。",
    "descEn": "Support, information and referral for complex mental health needs and carers.",
    "rank": 127,
    "enabled": true,
    "hoursZh": "星期一至五（以官網為準）",
    "hoursEn": "Mon–Fri (see website)"
  },
  {
    "itemId": "mental-qld-diverse-voices",
    "nameZh": "QLD Diverse Voices（LGBTI+ 同行支援）",
    "nameEn": "Diverse Voices (QLD)",
    "categoryId": "mental-health",
    "states": "QLD",
    "phone": "1800 184 527",
    "website": "https://www.diversevoices.org.au",
    "actionType": "phone",
    "descZh": "為 LGBTIQ+ 及其親友提供同行傾聽與支援（部分時段）。",
    "descEn": "Peer support for LGBTIQ+ people and allies (hours vary).",
    "rank": 128,
    "enabled": true,
    "hoursZh": "以服務時間為準",
    "hoursEn": "See service hours"
  },
  {
    "itemId": "support-nrs",
    "nameZh": "National Relay Service（聽障/言語支援）",
    "nameEn": "National Relay Service",
    "categoryId": "support",
    "states": "NSW, VIC, QLD, SA, NT, WA, TAS, ACT",
    "phone": "1800 555 677",
    "website": "https://www.accesshub.gov.au",
    "actionType": "phone",
    "descZh": "協助聽障或言語障礙人士打電話（多種模式：TTY/Voice Relay/SMS Relay 等）。",
    "descEn": "Phone relay services for people who are deaf/hard of hearing or have a speech impairment.",
    "rank": 129,
    "enabled": true,
    "hoursZh": "24 小時 / 7 日（服務模式不同或有差異）",
    "hoursEn": "24/7 (varies by relay type)"
  },
  {
    "itemId": "support-1800respect-text",
    "nameZh": "1800RESPECT 短訊支援",
    "nameEn": "1800RESPECT (Text)",
    "categoryId": "support",
    "states": "NSW, VIC, QLD, SA, NT, WA, TAS, ACT",
    "phone": "0458 737 732",
    "website": "https://www.1800respect.org.au",
    "actionType": "phone",
    "descZh": "家暴/性暴力支援短訊服務，適合唔方便講電話時使用。",
    "descEn": "Text support for domestic, family and sexual violence assistance.",
    "rank": 130,
    "enabled": true,
    "hoursZh": "以官網為準",
    "hoursEn": "See website"
  },
  {
    "itemId": "support-vic-safesteps",
    "nameZh": "VIC Safe Steps（家暴支援）",
    "nameEn": "Safe Steps Family Violence Response Centre",
    "categoryId": "support",
    "states": "VIC",
    "phone": "1800 015 188",
    "website": "https://www.safesteps.org.au",
    "actionType": "phone",
    "descZh": "維州家庭暴力危機支援中心，提供 24/7 安全與住宿支援。",
    "descEn": "Victoria family violence response centre with crisis and accommodation support.",
    "rank": 131,
    "enabled": true,
    "hoursZh": "24 小時 / 7 日",
    "hoursEn": "24/7"
  },
  {
    "itemId": "support-sa-dvcrisis",
    "nameZh": "SA 家暴危機專線",
    "nameEn": "Domestic Violence Crisis Line (SA)",
    "categoryId": "support",
    "states": "SA",
    "phone": "1800 800 098",
    "website": "https://www.womenssafetyservices.com.au",
    "actionType": "phone",
    "descZh": "南澳家庭暴力危機支援與轉介。",
    "descEn": "South Australia domestic violence crisis support and referral.",
    "rank": 132,
    "enabled": true,
    "hoursZh": "24 小時 / 7 日",
    "hoursEn": "24/7"
  },
  {
    "itemId": "support-tas-safeathome",
    "nameZh": "TAS 家暴轉介專線",
    "nameEn": "Safe at Home Family Violence Response & Referral (TAS)",
    "categoryId": "support",
    "states": "TAS",
    "phone": "1800 633 937",
    "website": "https://www.communities.tas.gov.au",
    "actionType": "phone",
    "descZh": "塔州家庭暴力資訊與轉介專線，連接合適服務及支援。",
    "descEn": "Tasmania family violence response and referral line.",
    "rank": 133,
    "enabled": true,
    "hoursZh": "24 小時 / 7 日",
    "hoursEn": "24/7"
  },
  {
    "itemId": "support-wa-womens-dv",
    "nameZh": "WA 女性家暴專線",
    "nameEn": "Women’s Domestic Violence Helpline (WA)",
    "categoryId": "support",
    "states": "WA",
    "phone": "1800 007 339",
    "website": "https://www.wa.gov.au/service/community-services/family-and-domestic-violence-support",
    "actionType": "phone",
    "descZh": "西澳女性（可帶子女）家庭暴力支援專線。",
    "descEn": "WA helpline for women experiencing family and domestic violence.",
    "rank": 134,
    "enabled": true,
    "hoursZh": "24 小時 / 7 日",
    "hoursEn": "24/7"
  },
  {
    "itemId": "support-act-dvcs",
    "nameZh": "ACT 家暴危機服務",
    "nameEn": "Domestic Violence Crisis Service (ACT)",
    "categoryId": "support",
    "states": "ACT",
    "phone": "02 6280 0900",
    "website": "https://www.dvcs.org.au",
    "actionType": "phone",
    "descZh": "首都領地家暴危機支援及安全計劃。",
    "descEn": "ACT domestic violence crisis support and safety planning.",
    "rank": 135,
    "enabled": true,
    "hoursZh": "24 小時 / 7 日（以官網為準）",
    "hoursEn": "24/7 (see website)"
  },
  {
    "itemId": "support-sa-child-abuse-report",
    "nameZh": "SA 兒童保護舉報",
    "nameEn": "Child Abuse Report Line (SA)",
    "categoryId": "support",
    "states": "SA",
    "phone": "13 14 78",
    "website": "https://www.childprotection.sa.gov.au",
    "actionType": "phone",
    "descZh": "南澳舉報兒童保護疑慮（24/7）。",
    "descEn": "Report child abuse or neglect concerns in South Australia (24/7).",
    "rank": 136,
    "enabled": true,
    "hoursZh": "24 小時 / 7 日",
    "hoursEn": "24/7"
  },
  {
    "itemId": "support-tas-strongfamilies",
    "nameZh": "TAS Strong Families Safe Kids",
    "nameEn": "Strong Families Safe Kids (TAS)",
    "categoryId": "support",
    "states": "TAS",
    "phone": "1800 000 123",
    "website": "https://www.communities.tas.gov.au/children/child_safety",
    "actionType": "phone",
    "descZh": "塔州兒童安全及家庭支援轉介專線。",
    "descEn": "Tasmania child wellbeing and safety advice and referral line.",
    "rank": 137,
    "enabled": true,
    "hoursZh": "24 小時 / 7 日（以官網為準）",
    "hoursEn": "24/7 (see website)"
  },
  {
    "itemId": "support-nt-child-protection",
    "nameZh": "NT 兒童保護舉報",
    "nameEn": "Child Protection Reporting Line (NT)",
    "categoryId": "support",
    "states": "NT",
    "phone": "1800 700 250",
    "website": "https://nt.gov.au/law/crime/child-protection-reporting",
    "actionType": "phone",
    "descZh": "北領地兒童保護舉報專線，亦可作安全求助。",
    "descEn": "Report child safety concerns in the Northern Territory.",
    "rank": 138,
    "enabled": true,
    "hoursZh": "24 小時 / 7 日（以官網為準）",
    "hoursEn": "24/7 (see website)"
  },
  {
    "itemId": "parenting-parentline-qld-nt",
    "nameZh": "Parentline（QLD & NT）",
    "nameEn": "Parentline QLD & NT",
    "categoryId": "parenting",
    "states": "QLD, NT",
    "phone": "1300 301 300",
    "website": "https://parentline.com.au",
    "actionType": "phone",
    "descZh": "父母/照顧者支援及教養諮詢（QLD/NT）。",
    "descEn": "Parenting counselling and support for parents and carers (QLD/NT).",
    "rank": 139,
    "enabled": true,
    "hoursZh": "每日（以官網為準）",
    "hoursEn": "See website"
  },
  {
    "itemId": "parenting-parentline-tas",
    "nameZh": "Parent Line（TAS）",
    "nameEn": "Parent Line Tasmania",
    "categoryId": "parenting",
    "states": "TAS",
    "phone": "1300 808 178",
    "website": "https://www.health.tas.gov.au",
    "actionType": "phone",
    "descZh": "塔州父母支援熱線（育兒/親子/健康資訊）。",
    "descEn": "Parenting support line for Tasmania.",
    "rank": 140,
    "enabled": true,
    "hoursZh": "24 小時 / 7 日（以官網為準）",
    "hoursEn": "24/7 (see website)"
  },
  {
    "itemId": "parenting-parentline-act",
    "nameZh": "Parentline ACT",
    "nameEn": "Parentline ACT",
    "categoryId": "parenting",
    "states": "ACT",
    "phone": "02 6287 3833",
    "website": "https://www.parentlineact.org.au",
    "actionType": "phone",
    "descZh": "首都領地父母支援及教養諮詢（辦公時間）。",
    "descEn": "Parenting support and counselling in the ACT.",
    "rank": 141,
    "enabled": true,
    "hoursZh": "星期一至五（辦公時間）",
    "hoursEn": "Mon–Fri (business hours)"
  },
  {
    "itemId": "parenting-tresillian",
    "nameZh": "NSW Tresillian Parent’s Help Line",
    "nameEn": "Tresillian Parent’s Help Line",
    "categoryId": "parenting",
    "states": "NSW",
    "phone": "1300 272 736",
    "website": "https://www.tresillian.org.au",
    "actionType": "phone",
    "descZh": "嬰幼兒睡眠、餵哺與發展支援及建議。",
    "descEn": "Support and advice on baby sleep, feeding and development.",
    "rank": 142,
    "enabled": true,
    "hoursZh": "每日（以官網為準）",
    "hoursEn": "See website"
  },
  {
    "itemId": "health-quitline",
    "nameZh": "Quitline（戒煙支援）",
    "nameEn": "Quitline",
    "categoryId": "health",
    "states": "NSW, VIC, QLD, SA, NT, WA, TAS, ACT",
    "phone": "13 78 48",
    "website": "https://www.quit.org.au",
    "actionType": "phone",
    "descZh": "戒煙支援與輔導（各州服務時間可能不同）。",
    "descEn": "Quit smoking support and counselling (hours may vary by state).",
    "rank": 143,
    "enabled": true,
    "hoursZh": "以各州為準",
    "hoursEn": "Varies by state"
  },
  {
    "itemId": "support-idcare-2",
    "nameZh": "IDCARE（身份盜用/資料外洩）",
    "nameEn": "IDCARE",
    "categoryId": "support",
    "states": "NSW, VIC, QLD, SA, NT, WA, TAS, ACT",
    "phone": "1800 595 160",
    "website": "https://www.idcare.org",
    "actionType": "phone",
    "descZh": "身份盜用及個人資料外洩支援（復原步驟、個案指引）。",
    "descEn": "Identity theft and data breach support and recovery guidance.",
    "rank": 144,
    "enabled": true,
    "hoursZh": "辦公時間（以官網為準）",
    "hoursEn": "Business hours (see website)"
  },
  {
    "itemId": "support-reportcyber-2",
    "nameZh": "ReportCyber（網絡罪案舉報）",
    "nameEn": "ReportCyber",
    "categoryId": "support",
    "states": "NSW, VIC, QLD, SA, NT, WA, TAS, ACT",
    "phone": "",
    "website": "https://www.cyber.gov.au/report-and-recover/report",
    "actionType": "link",
    "descZh": "官方網絡罪案/詐騙舉報平台，並提供復原指引。",
    "descEn": "Official portal to report cybercrime and get recovery guidance.",
    "rank": 145,
    "enabled": true,
    "hoursZh": "24 小時（網上）",
    "hoursEn": "24/7 (online)"
  },
  {
    "itemId": "support-airport-security",
    "nameZh": "AFP Airport Security Hotline",
    "nameEn": "AFP Airport Security Hotline",
    "categoryId": "support",
    "states": "NSW, VIC, QLD, SA, NT, WA, TAS, ACT",
    "phone": "131 237",
    "website": "https://www.afp.gov.au",
    "actionType": "phone",
    "descZh": "機場相關緊急協助或保安事項（視情況）。",
    "descEn": "Airport-related urgent assistance and security matters (as applicable).",
    "rank": 146,
    "enabled": true,
    "hoursZh": "24 小時 / 7 日（以官網為準）",
    "hoursEn": "24/7 (see website)"
  },
  {
    "itemId": "support-salvos-careline",
    "nameZh": "Salvos Care Line（危機支援）",
    "nameEn": "Salvation Army Care Line",
    "categoryId": "support",
    "states": "NSW, VIC, QLD, SA, NT, WA, TAS, ACT",
    "phone": "1300 36 36 22",
    "website": "https://www.salvationarmy.org.au",
    "actionType": "phone",
    "descZh": "救世軍危機支援與轉介入口（住宿/生活援助等）。",
    "descEn": "Salvation Army support and referral for crisis and hardship.",
    "rank": 147,
    "enabled": true,
    "hoursZh": "24 小時 / 7 日（以官網為準）",
    "hoursEn": "24/7 (see website)"
  },
  {
    "itemId": "support-askizzy-money",
    "nameZh": "Ask Izzy（財政支援搜尋）",
    "nameEn": "Ask Izzy (Money Help)",
    "categoryId": "support",
    "states": "NSW, VIC, QLD, SA, NT, WA, TAS, ACT",
    "phone": "",
    "website": "https://askizzy.org.au/money",
    "actionType": "link",
    "descZh": "用 Ask Izzy 搜尋附近財務輔導、緊急補助、食物援助等。",
    "descEn": "Find local money help, emergency relief and related services via Ask Izzy.",
    "rank": 148,
    "enabled": true,
    "hoursZh": "24 小時（網上）",
    "hoursEn": "24/7 (online)"
  },
  {
    "itemId": "support-askizzy-familyviolence",
    "nameZh": "Ask Izzy（家暴支援搜尋）",
    "nameEn": "Ask Izzy (Family Violence)",
    "categoryId": "support",
    "states": "NSW, VIC, QLD, SA, NT, WA, TAS, ACT",
    "phone": "",
    "website": "https://askizzy.org.au/family-violence-support",
    "actionType": "link",
    "descZh": "用 Ask Izzy 搜尋附近家暴支援、庇護、輔導及法律服務。",
    "descEn": "Find local family violence support, accommodation, counselling and legal help.",
    "rank": 149,
    "enabled": true,
    "hoursZh": "24 小時（網上）",
    "hoursEn": "24/7 (online)"
  },
  {
    "itemId": "support-askizzy-legal",
    "nameZh": "Ask Izzy（法援/法律服務搜尋）",
    "nameEn": "Ask Izzy (Legal Help)",
    "categoryId": "support",
    "states": "NSW, VIC, QLD, SA, NT, WA, TAS, ACT",
    "phone": "",
    "website": "https://askizzy.org.au/legal",
    "actionType": "link",
    "descZh": "用 Ask Izzy 搜尋附近法律援助、社區法律中心及支援。",
    "descEn": "Find local legal help and community legal services via Ask Izzy.",
    "rank": 150,
    "enabled": false,
    "hoursZh": "24 小時（網上）",
    "hoursEn": "24/7 (online)"
  },
  {
    "itemId": "support-askizzy-health",
    "nameZh": "Ask Izzy（醫療支援搜尋）",
    "nameEn": "Ask Izzy (Health)",
    "categoryId": "support",
    "states": "NSW, VIC, QLD, SA, NT, WA, TAS, ACT",
    "phone": "",
    "website": "https://askizzy.org.au/health",
    "actionType": "link",
    "descZh": "用 Ask Izzy 搜尋附近醫療、牙科、心理及社區健康服務。",
    "descEn": "Find local health and wellbeing services via Ask Izzy.",
    "rank": 151,
    "enabled": false,
    "hoursZh": "24 小時（網上）",
    "hoursEn": "24/7 (online)"
  },
  {
    "itemId": "legal-victoria-legalhelp",
    "nameZh": "Victoria Legal Help",
    "nameEn": "Victoria Legal Help",
    "categoryId": "legal",
    "states": "VIC",
    "phone": "1300 792 387",
    "website": "https://www.legalaid.vic.gov.au",
    "actionType": "phone",
    "descZh": "維州法律資訊與轉介入口（由 Legal Aid Victoria 提供）。",
    "descEn": "Victorian legal information and referrals (provided by Legal Aid Victoria).",
    "rank": 152,
    "enabled": true,
    "hoursZh": "辦公時間（以官網為準）",
    "hoursEn": "Business hours (see website)"
  },
  {
    "itemId": "legal-legal-aid-qld-indigenous",
    "nameZh": "Legal Aid QLD（原住民專線）",
    "nameEn": "Legal Aid Queensland (Indigenous Line)",
    "categoryId": "legal",
    "states": "QLD",
    "phone": "1300 650 143",
    "website": "https://www.legalaid.qld.gov.au",
    "actionType": "phone",
    "descZh": "昆州原住民法律建議專線（時段制）。",
    "descEn": "Indigenous legal advice line in Queensland (hours vary).",
    "rank": 153,
    "enabled": true,
    "hoursZh": "辦公時間（以官網為準）",
    "hoursEn": "Business hours (see website)"
  },
  {
    "itemId": "legal-wa-yarning",
    "nameZh": "Legal Aid WA（Legal Yarning）",
    "nameEn": "Legal Aid WA (Legal Yarning Service)",
    "categoryId": "legal",
    "states": "WA",
    "phone": "1800 319 803",
    "website": "https://www.legalaid.wa.gov.au",
    "actionType": "phone",
    "descZh": "西澳原住民法律支援（Legal Yarning）。",
    "descEn": "Legal yarning service for Aboriginal people in WA.",
    "rank": 154,
    "enabled": true,
    "hoursZh": "辦公時間（以官網為準）",
    "hoursEn": "Business hours (see website)"
  },
  {
    "itemId": "health-1800medicare",
    "nameZh": "1800MEDICARE（Medicare 專線）",
    "nameEn": "1800MEDICARE",
    "categoryId": "health",
    "states": "NSW, VIC, QLD, SA, NT, WA, TAS, ACT",
    "phone": "1800 633 422",
    "website": "https://www.servicesaustralia.gov.au/medicare",
    "actionType": "phone",
    "descZh": "Medicare 一般查詢（部分人士偏好用 1800 號碼）。",
    "descEn": "Medicare general enquiries (alternative 1800 number).",
    "rank": 155,
    "enabled": true,
    "hoursZh": "辦公時間（以官網為準）",
    "hoursEn": "Business hours (see website)"
  },
  {
    "itemId": "health-13health-qld",
    "nameZh": "13HEALTH（QLD 健康資訊）",
    "nameEn": "13HEALTH (Queensland)",
    "categoryId": "health",
    "states": "QLD",
    "phone": "13 43 25 84",
    "website": "https://www.qld.gov.au/health/contacts",
    "actionType": "phone",
    "descZh": "昆州 24/7 健康資訊及護理建議。",
    "descEn": "Queensland 24/7 health advice and information line.",
    "rank": 156,
    "enabled": true,
    "hoursZh": "24 小時 / 7 日",
    "hoursEn": "24/7"
  },
  {
    "itemId": "health-nurse-on-call-vic",
    "nameZh": "Nurse-on-Call（VIC）",
    "nameEn": "Nurse-on-Call (Victoria)",
    "categoryId": "health",
    "states": "VIC",
    "phone": "1300 60 60 24",
    "website": "https://www.betterhealth.vic.gov.au",
    "actionType": "phone",
    "descZh": "維州註冊護士健康資訊及建議（非緊急）。",
    "descEn": "Victoria nurse advice line for non-urgent health concerns.",
    "rank": 157,
    "enabled": true,
    "hoursZh": "24 小時 / 7 日",
    "hoursEn": "24/7"
  },
  {
    "itemId": "health-turningpoint",
    "nameZh": "Turning Point（成癮支援入口）",
    "nameEn": "Turning Point (Addiction Support)",
    "categoryId": "health",
    "states": "NSW, VIC, QLD, SA, NT, WA, TAS, ACT",
    "phone": "",
    "website": "https://www.turningpoint.org.au",
    "actionType": "link",
    "descZh": "全澳成癮支援入口（戒酒/藥物/賭博等資源與轉介）。",
    "descEn": "Addiction support hub including resources and pathways for alcohol, drugs and gambling.",
    "rank": 158,
    "enabled": true,
    "hoursZh": "24 小時（網站）",
    "hoursEn": "24/7 (website)"
  },
  {
    "itemId": "support-ozhelp",
    "nameZh": "OzHelp（職場心理健康）",
    "nameEn": "OzHelp Foundation",
    "categoryId": "support",
    "states": "NSW, VIC, QLD, SA, NT, WA, TAS, ACT",
    "phone": "1300 694 357",
    "website": "https://ozhelp.org.au",
    "actionType": "phone",
    "descZh": "職場壓力及心理健康支援與資源。",
    "descEn": "Workplace mental health support and resources.",
    "rank": 159,
    "enabled": true,
    "hoursZh": "辦公時間（以官網為準）",
    "hoursEn": "Business hours (see website)"
  },
  {
    "itemId": "support-carers-aus",
    "nameZh": "Carers Australia（照顧者支援）",
    "nameEn": "Carers Australia",
    "categoryId": "support",
    "states": "NSW, VIC, QLD, SA, NT, WA, TAS, ACT",
    "phone": "1800 242 636",
    "website": "https://www.carersaustralia.com.au",
    "actionType": "phone",
    "descZh": "全國照顧者支援入口（各州/地區轉介及資訊）。",
    "descEn": "National carers support and referral to state/territory services.",
    "rank": 160,
    "enabled": true,
    "hoursZh": "辦公時間（以官網為準）",
    "hoursEn": "Business hours (see website)"
  },
  {
    "itemId": "support-carerswa-general",
    "nameZh": "Carers WA（一般查詢）",
    "nameEn": "Carers WA (General Line)",
    "categoryId": "support",
    "states": "WA",
    "phone": "1300 227 377",
    "website": "https://www.carerswa.asn.au",
    "actionType": "phone",
    "descZh": "西澳照顧者一般查詢、支援及服務資訊。",
    "descEn": "General enquiries and support for carers in Western Australia.",
    "rank": 161,
    "enabled": true,
    "hoursZh": "星期一至五（以官網為準）",
    "hoursEn": "Mon–Fri (see website)"
  },
  {
    "itemId": "support-carerswa-counselling",
    "nameZh": "Carers WA（輔導專線）",
    "nameEn": "Carers WA (Counselling Line)",
    "categoryId": "support",
    "states": "WA",
    "phone": "1800 007 332",
    "website": "https://www.carerswa.asn.au",
    "actionType": "phone",
    "descZh": "西澳照顧者輔導支援（時段制）。",
    "descEn": "Counselling support for carers in Western Australia (hours vary).",
    "rank": 162,
    "enabled": true,
    "hoursZh": "星期一至五（以官網為準）",
    "hoursEn": "Mon–Fri (see website)"
  },
  {
    "itemId": "mental-wa-camhs-crisis",
    "nameZh": "WA 兒童及青少年精神健康危機",
    "nameEn": "CAMHS Crisis Connect (WA)",
    "categoryId": "mental-health",
    "states": "WA",
    "phone": "1800 048 636",
    "website": "https://www.healthywa.wa.gov.au",
    "actionType": "phone",
    "descZh": "西澳兒童及青少年精神健康危機支援（24/7）。",
    "descEn": "24/7 mental health crisis advice and support for children and young people in WA.",
    "rank": 163,
    "enabled": true,
    "hoursZh": "24 小時 / 7 日",
    "hoursEn": "24/7"
  },
  {
    "itemId": "health-wa-aod-supportline",
    "nameZh": "WA 酒精及藥物支援專線",
    "nameEn": "Alcohol and Drug Support Line (WA)",
    "categoryId": "health",
    "states": "WA",
    "phone": "08 9442 5000",
    "website": "https://www.mhc.wa.gov.au",
    "actionType": "phone",
    "descZh": "西澳 24/7 酒精及藥物求助與支援（都會/一般）。",
    "descEn": "24/7 support for alcohol and other drug concerns in WA.",
    "rank": 164,
    "enabled": true,
    "hoursZh": "24 小時 / 7 日",
    "hoursEn": "24/7"
  },
  {
    "itemId": "health-wa-aod-supportline-country",
    "nameZh": "WA 酒精及藥物支援（鄉郊免費）",
    "nameEn": "Alcohol and Drug Support Line (WA - Country)",
    "categoryId": "health",
    "states": "WA",
    "phone": "1800 198 024",
    "website": "https://www.mhc.wa.gov.au",
    "actionType": "phone",
    "descZh": "西澳鄉郊地區免費酒精及藥物支援號碼（24/7）。",
    "descEn": "24/7 country toll-free number for alcohol and drug support in WA.",
    "rank": 165,
    "enabled": true,
    "hoursZh": "24 小時 / 7 日",
    "hoursEn": "24/7"
  },
  {
    "itemId": "health-wa-parent-family-drug",
    "nameZh": "WA 家人藥酒支援",
    "nameEn": "Parent and Family Drug Support Line (WA)",
    "categoryId": "health",
    "states": "WA",
    "phone": "08 9442 5050",
    "website": "https://www.mhc.wa.gov.au",
    "actionType": "phone",
    "descZh": "西澳支援受家人藥酒問題影響人士（24/7）。",
    "descEn": "24/7 support for families affected by someone else’s alcohol or drug use in WA.",
    "rank": 166,
    "enabled": true,
    "hoursZh": "24 小時 / 7 日",
    "hoursEn": "24/7"
  },
  {
    "itemId": "health-wa-parent-family-drug-country",
    "nameZh": "WA 家人藥酒支援（鄉郊免費）",
    "nameEn": "Parent and Family Drug Support Line (WA - Country)",
    "categoryId": "health",
    "states": "WA",
    "phone": "1800 653 203",
    "website": "https://www.mhc.wa.gov.au",
    "actionType": "phone",
    "descZh": "西澳鄉郊地區免費家人藥酒支援號碼（24/7）。",
    "descEn": "24/7 country toll-free family drug support number in WA.",
    "rank": 167,
    "enabled": true,
    "hoursZh": "24 小時 / 7 日",
    "hoursEn": "24/7"
  },
  {
    "itemId": "support-rainbow-door-vic",
    "nameZh": "VIC Rainbow Door（LGBTIQ+ 支援）",
    "nameEn": "Rainbow Door (VIC)",
    "categoryId": "support",
    "states": "VIC",
    "phone": "1800 729 367",
    "website": "https://www.rainbowdoor.org.au",
    "actionType": "phone",
    "descZh": "維州 LGBTIQ+ 專線支援（電話/短訊，時段制）。",
    "descEn": "Victoria specialist helpline for LGBTIQ+ people (hours vary).",
    "rank": 168,
    "enabled": true,
    "hoursZh": "以官網為準",
    "hoursEn": "See website"
  },
  {
    "itemId": "support-sa-letss",
    "nameZh": "SA LETSS（晚間心理支援）",
    "nameEn": "Lived Experience Telephone Support Service (SA)",
    "categoryId": "support",
    "states": "SA",
    "phone": "1800 013 755",
    "website": "https://www.neaminational.org.au",
    "actionType": "phone",
    "descZh": "南澳（阿德萊德都會）晚間心理支援，同行支援與導航。",
    "descEn": "After-hours lived experience support and navigation (SA metro).",
    "rank": 169,
    "enabled": true,
    "hoursZh": "傍晚至夜間（以官網為準）",
    "hoursEn": "Evenings (see website)"
  },
  {
    "itemId": "support-nsw-ageing-disability-abuse",
    "nameZh": "NSW 長者/殘障虐待求助",
    "nameEn": "NSW Ageing and Disability Abuse Helpline",
    "categoryId": "support",
    "states": "NSW",
    "phone": "1800 628 221",
    "website": "https://dcj.nsw.gov.au",
    "actionType": "phone",
    "descZh": "新州長者或殘障人士受虐/忽視/經濟剝削求助與建議。",
    "descEn": "Support if you suspect abuse, neglect or exploitation of an older person or person with disability in NSW.",
    "rank": 170,
    "enabled": true,
    "hoursZh": "以官網為準",
    "hoursEn": "See website"
  },
  {
    "itemId": "support-disability-abuse-hotline",
    "nameZh": "殘障虐待及忽視求助（全國）",
    "nameEn": "National Disability Abuse & Neglect Hotline",
    "categoryId": "disability",
    "states": "NSW, VIC, QLD, SA, NT, WA, TAS, ACT",
    "phone": "1800 880 052",
    "website": "https://www.dss.gov.au",
    "actionType": "phone",
    "descZh": "殘障人士虐待/忽視/剝削求助與投訴（辦公時間）。",
    "descEn": "Support and complaints service for disability abuse/neglect/exploitation (business hours).",
    "rank": 171,
    "enabled": true,
    "hoursZh": "辦公時間（以官網為準）",
    "hoursEn": "Business hours (see website)"
  },
  {
    "itemId": "transport-nt-roadreport",
    "nameZh": "NT Road Report（路況）",
    "nameEn": "NT Road Report",
    "categoryId": "transport",
    "states": "NT",
    "phone": "1800 246 199",
    "website": "https://roadreport.nt.gov.au",
    "actionType": "phone",
    "descZh": "北領地道路狀況、封路及路線資訊。",
    "descEn": "Northern Territory road conditions and closures information.",
    "rank": 172,
    "enabled": true,
    "hoursZh": "24 小時（網站；電話以服務為準）",
    "hoursEn": "24/7 (website; phone varies)"
  },
  {
    "itemId": "disaster-tsunami-warning",
    "nameZh": "澳洲海嘯警報（電話／網上）",
    "nameEn": "Tsunami Warning (Australia)",
    "categoryId": "disaster",
    "states": "NSW, VIC, QLD, SA, NT, WA, TAS, ACT",
    "phone": "1300 878 626",
    "website": "https://www.bom.gov.au/tsunami",
    "actionType": "phone",
    "descZh": "澳洲海嘯警報資訊入口（電話／網上）。如情況危及生命，先致電 000。",
    "descEn": "Australia tsunami warning information (phone/online). Call 000 if life-threatening.",
    "rank": 173,
    "enabled": true,
    "hoursZh": "24/7（以官網為準）",
    "hoursEn": "24/7 (see website)"
  },
  {
    "itemId": "support-consular-emergency",
    "nameZh": "領事緊急支援（澳洲）",
    "nameEn": "Consular Emergency Centre",
    "categoryId": "support",
    "states": "NSW, VIC, QLD, SA, NT, WA, TAS, ACT",
    "phone": "1300 555 135",
    "website": "https://www.smartraveller.gov.au",
    "actionType": "phone",
    "descZh": "澳洲公民海外遇上嚴重緊急情況時，可致電領事緊急中心。",
    "descEn": "24/7 consular emergency assistance for Australians overseas (from within Australia).",
    "rank": 174,
    "enabled": true,
    "hoursZh": "24 小時 / 7 日",
    "hoursEn": "24/7"
  },
  {
    "itemId": "support-consular-emergency-overseas",
    "nameZh": "領事緊急支援（海外撥打）",
    "nameEn": "Consular Emergency Centre (Overseas)",
    "categoryId": "support",
    "states": "NSW, VIC, QLD, SA, NT, WA, TAS, ACT",
    "phone": "61 2 6261 3305",
    "website": "https://www.smartraveller.gov.au",
    "actionType": "phone",
    "descZh": "海外撥打領事緊急中心電話。",
    "descEn": "Consular Emergency Centre number when calling from overseas.",
    "rank": 175,
    "enabled": true,
    "hoursZh": "24 小時 / 7 日",
    "hoursEn": "24/7"
  },
  {
    "itemId": "health-divers-alert-network",
    "nameZh": "潛水緊急支援（DAN）",
    "nameEn": "Divers Alert Network (DAN) Emergency Hotline",
    "categoryId": "health",
    "states": "NSW, VIC, QLD, SA, NT, WA, TAS, ACT",
    "phone": "1800 088 200",
    "website": "https://dan.org",
    "actionType": "phone",
    "descZh": "潛水相關緊急醫療支援熱線（DAN 會員/服務範圍以官網為準）。",
    "descEn": "Diving emergency hotline (membership/coverage conditions may apply).",
    "rank": 176,
    "enabled": true,
    "hoursZh": "24 小時 / 7 日（以官網為準）",
    "hoursEn": "24/7 (see website)"
  },
  {
    "itemId": "health-directline-vic",
    "nameZh": "DirectLine（VIC 酒精/藥物）",
    "nameEn": "DirectLine (VIC)",
    "categoryId": "health",
    "states": "VIC",
    "phone": "1800 888 236",
    "website": "https://www.directline.org.au",
    "actionType": "phone",
    "descZh": "維州酒精及藥物支援與轉介（24/7）。",
    "descEn": "Victoria alcohol and drug counselling and referral line (24/7).",
    "rank": 177,
    "enabled": true,
    "hoursZh": "24 小時 / 7 日",
    "hoursEn": "24/7"
  },
  {
    "itemId": "support-energex",
    "nameZh": "QLD Energex（停電/電力）",
    "nameEn": "Energex (QLD)",
    "categoryId": "support",
    "states": "QLD",
    "phone": "13 19 62",
    "website": "https://www.energex.com.au",
    "actionType": "phone",
    "descZh": "昆州東南部電力故障/危險報告（視情況先打 000）。",
    "descEn": "Power outages and electrical faults reporting in SE Queensland.",
    "rank": 178,
    "enabled": true,
    "hoursZh": "24 小時 / 7 日（以官網為準）",
    "hoursEn": "24/7 (see website)"
  },
  {
    "itemId": "support-ergon",
    "nameZh": "QLD Ergon Energy（停電/電力）",
    "nameEn": "Ergon Energy (QLD)",
    "categoryId": "support",
    "states": "QLD",
    "phone": "13 16 70",
    "website": "https://www.ergon.com.au",
    "actionType": "phone",
    "descZh": "昆州鄉郊地區電力故障/危險報告。",
    "descEn": "Power outages and faults reporting for regional Queensland.",
    "rank": 179,
    "enabled": true,
    "hoursZh": "24 小時 / 7 日（以官網為準）",
    "hoursEn": "24/7 (see website)"
  },
  {
    "itemId": "support-qld-community-recovery",
    "nameZh": "QLD Community Recovery Hotline",
    "nameEn": "Community Recovery Hotline (QLD)",
    "categoryId": "support",
    "states": "QLD",
    "phone": "1800 173 349",
    "website": "https://www.qld.gov.au/community/disasters-emergencies",
    "actionType": "phone",
    "descZh": "昆州災後支援與復原資訊（補助、支援服務等）。",
    "descEn": "Queensland disaster recovery information and support hotline.",
    "rank": 180,
    "enabled": true,
    "hoursZh": "以災情期間公告為準",
    "hoursEn": "Varies during events"
  },
  {
    "itemId": "support-rspca-qld-animal-emergency",
    "nameZh": "RSPCA QLD 動物緊急救援",
    "nameEn": "RSPCA QLD Animal Emergency",
    "categoryId": "support",
    "states": "QLD",
    "phone": "1300 264 625",
    "website": "https://www.rspcaqld.org.au",
    "actionType": "phone",
    "descZh": "昆州動物緊急求助熱線（每日 7am–7pm）。如屬非服務時間，按指引可先送往就近 after-hours 急診獸醫。",
    "descEn": "Animal emergency hotline in Queensland (7am–7pm daily). After hours, follow guidance and consider taking the animal to a nearby after-hours emergency veterinary clinic.",
    "rank": 181,
    "enabled": true,
    "hoursZh": "7am–7pm",
    "hoursEn": "7am–7pm"
  },
  {
    "itemId": "support-rspca-qld-lostfound",
    "nameZh": "RSPCA QLD 失蹤及尋回",
    "nameEn": "RSPCA QLD Lost & Found",
    "categoryId": "support",
    "states": "QLD",
    "phone": "1300 363 736",
    "website": "https://www.rspcaqld.org.au",
    "actionType": "phone",
    "descZh": "昆州動物走失/尋回資訊及支援。",
    "descEn": "Lost and found pets support in Queensland.",
    "rank": 182,
    "enabled": true,
    "hoursZh": "以官網為準",
    "hoursEn": "See website"
  },
  {
    "itemId": "financial-ndh",
    "nameZh": "國家債務求助熱線（財務輔導）",
    "nameEn": "National Debt Helpline",
    "categoryId": "financial",
    "states": "NSW, VIC, QLD, SA, NT, WA, TAS, ACT",
    "phone": "1800 007 007",
    "website": "https://ndh.org.au",
    "actionType": "phone",
    "descZh": "免費財務輔導與債務求助；亦可用網上即時聊天。",
    "descEn": "Free financial counselling and debt help; online chat available.",
    "rank": 183,
    "enabled": true,
    "hoursZh": "Mon–Fri 9:30am–4:30pm（Chat：Mon–Fri 9am–8pm）",
    "hoursEn": "Mon–Fri 9:30am–4:30pm (Chat: Mon–Fri 9am–8pm)"
  },
  {
    "itemId": "support-salvos-assistanceline",
    "nameZh": "救世軍求助熱線（基本生活/危機支援）",
    "nameEn": "Salvos Assistance Line",
    "categoryId": "support",
    "states": "NSW, VIC, QLD, SA, NT, WA, TAS, ACT",
    "phone": "1300 363 622",
    "website": "https://www.salvationarmy.org.au/need-help/",
    "actionType": "phone",
    "descZh": "可查詢緊急援助、住宿、食物與其他支援服務（按地區安排）。",
    "descEn": "Enquiries for emergency relief, housing, food and local supports (location-based).",
    "rank": 184,
    "enabled": true,
    "hoursZh": "24/7（以地區服務為準）",
    "hoursEn": "24/7 (services vary by location)"
  },
  {
    "itemId": "support-vinnies-er",
    "nameZh": "St Vincent de Paul 緊急援助熱線",
    "nameEn": "Vinnies Emergency Relief",
    "categoryId": "support",
    "states": "NSW, VIC, QLD, SA, NT, WA, TAS, ACT",
    "phone": "13 18 12",
    "website": "https://www.vinnies.org.au",
    "actionType": "phone",
    "descZh": "財困/危機支援：食物券、交通、藥物、部分帳單等（按地區安排）。",
    "descEn": "Emergency relief for financial crisis (vouchers, essentials, bill help; varies by location).",
    "rank": 185,
    "enabled": true,
    "hoursZh": "Mon–Fri 9am–5pm",
    "hoursEn": "Mon–Fri 9am–5pm"
  },
  {
    "itemId": "support-medicare-general",
    "nameZh": "Medicare 一般查詢",
    "nameEn": "Medicare General Enquiries",
    "categoryId": "support",
    "states": "NSW, VIC, QLD, SA, NT, WA, TAS, ACT",
    "phone": "13 20 11",
    "website": "https://www.servicesaustralia.gov.au/medicare",
    "actionType": "phone",
    "descZh": "Medicare 卡、報銷、一般查詢。",
    "descEn": "Medicare card and claims enquiries.",
    "rank": 186,
    "enabled": true,
    "hoursZh": "辦公時間（以官網為準）",
    "hoursEn": "Business hours (see website)"
  },
  {
    "itemId": "mental-headtohealth-phone",
    "nameZh": "Head to Health 電話導航",
    "nameEn": "Head to Health",
    "categoryId": "mental-health",
    "states": "NSW, VIC, QLD, SA, NT, WA, TAS, ACT",
    "phone": "1800 595 212",
    "website": "https://www.headtohealth.gov.au",
    "actionType": "phone",
    "descZh": "免費電話連接心理健康資訊、建議及合適服務。",
    "descEn": "Connects you to mental health information, advice and services.",
    "rank": 187,
    "enabled": true,
    "hoursZh": "Mon–Fri 8:30am–5pm（公眾假期除外）",
    "hoursEn": "Mon–Fri 8:30am–5pm (excl. public holidays)"
  },
  {
    "itemId": "support-relationships-aus",
    "nameZh": "Relationships Australia（關係/家庭輔導）",
    "nameEn": "Relationships Australia",
    "categoryId": "support",
    "states": "NSW, VIC, QLD, SA, NT, WA, TAS, ACT",
    "phone": "1300 364 277",
    "website": "https://www.relationships.org.au",
    "actionType": "phone",
    "descZh": "伴侶關係、家庭溝通、分居/共同養育等輔導與服務入口。",
    "descEn": "Counselling and support for relationships, family issues, separation and parenting.",
    "rank": 188,
    "enabled": true,
    "hoursZh": "辦公時間（以官網為準）",
    "hoursEn": "Business hours (see website)"
  },
  {
    "itemId": "support-family-relationship-line",
    "nameZh": "家庭關係諮詢線",
    "nameEn": "Family Relationship Advice Line",
    "categoryId": "support",
    "states": "NSW, VIC, QLD, SA, NT, WA, TAS, ACT",
    "phone": "1800 050 321",
    "website": "https://www.familyrelationships.gov.au",
    "actionType": "phone",
    "descZh": "分居、共同養育、家庭關係與轉介資訊。",
    "descEn": "Advice and referral for separation, parenting and family relationships.",
    "rank": 189,
    "enabled": true,
    "hoursZh": "Mon–Fri 8am–8pm；Sat 10am–4pm（公眾假期除外）",
    "hoursEn": "Mon–Fri 8am–8pm; Sat 10am–4pm (excl. public holidays)"
  },
  {
    "itemId": "parenting-pbb",
    "nameZh": "懷孕・生育・BB 熱線",
    "nameEn": "Pregnancy, Birth and Baby Helpline",
    "categoryId": "parenting",
    "states": "NSW, VIC, QLD, SA, NT, WA, TAS, ACT",
    "phone": "1800 882 436",
    "website": "https://www.pregnancybirthbaby.org.au",
    "actionType": "phone",
    "descZh": "為準父母及育兒照顧者提供資訊與支援（睡眠、餵哺、健康等）。",
    "descEn": "Information and support for pregnancy and parenting concerns.",
    "rank": 190,
    "enabled": true,
    "hoursZh": "每日 7am–midnight（以官網為準）",
    "hoursEn": "7am–midnight daily (see website)"
  },
  {
    "itemId": "parenting-forwhen",
    "nameZh": "ForWhen（準父母/新手父母心理支援）",
    "nameEn": "ForWhen (Perinatal & Infant Mental Health)",
    "categoryId": "parenting",
    "states": "NSW, VIC, QLD, SA, NT, WA, TAS, ACT",
    "phone": "1300 242 322",
    "website": "https://forwhenhelpline.org.au",
    "actionType": "phone",
    "descZh": "為懷孕期至 BB 一歲左右家庭提供心理支援與轉介。",
    "descEn": "Mental health support and referral for new/expecting parents.",
    "rank": 191,
    "enabled": true,
    "hoursZh": "Mon–Fri 9am–4:30pm",
    "hoursEn": "Mon–Fri 9am–4:30pm"
  },
  {
    "itemId": "mental-panda",
    "nameZh": "產前產後焦慮抑鬱支援",
    "nameEn": "PANDA (Perinatal Anxiety & Depression Australia)",
    "categoryId": "mental-health",
    "states": "NSW, VIC, QLD, SA, NT, WA, TAS, ACT",
    "phone": "1300 726 306",
    "website": "https://panda.org.au",
    "actionType": "phone",
    "descZh": "懷孕及產後一年內的焦慮/抑鬱支援（包括爸爸/伴侶）。",
    "descEn": "Support for perinatal anxiety and depression (including dads/partners).",
    "rank": 192,
    "enabled": true,
    "hoursZh": "Mon–Fri 9am–7:30pm（以官網為準）",
    "hoursEn": "Mon–Fri 9am–7:30pm (see website)"
  },
  {
    "itemId": "support-butterfly",
    "nameZh": "飲食失調支援",
    "nameEn": "Butterfly Foundation Helpline",
    "categoryId": "support",
    "states": "NSW, VIC, QLD, SA, NT, WA, TAS, ACT",
    "phone": "1800 33 4673",
    "website": "https://butterfly.org.au",
    "actionType": "phone",
    "descZh": "飲食失調、身體形象困擾支援與轉介。",
    "descEn": "Eating disorders and body image support and referral.",
    "rank": 193,
    "enabled": true,
    "hoursZh": "每日 8am–midnight（以官網為準）",
    "hoursEn": "8am–midnight daily (see website)"
  },
  {
    "itemId": "support-blueknot",
    "nameZh": "複雜創傷/童年虐待支援",
    "nameEn": "Blue Knot Foundation Helpline",
    "categoryId": "support",
    "states": "NSW, VIC, QLD, SA, NT, WA, TAS, ACT",
    "phone": "1300 657 380",
    "website": "https://blueknot.org.au",
    "actionType": "phone",
    "descZh": "為童年虐待及複雜創傷倖存者提供支援與轉介。",
    "descEn": "Support for survivors of complex trauma and childhood abuse.",
    "rank": 194,
    "enabled": true,
    "hoursZh": "辦公時間（以官網為準）",
    "hoursEn": "Business hours (see website)"
  },
  {
    "itemId": "support-thirrili",
    "nameZh": "原住民喪親/創傷支援",
    "nameEn": "Thirrili National Indigenous Postvention Service",
    "categoryId": "support",
    "states": "NSW, VIC, QLD, SA, NT, WA, TAS, ACT",
    "phone": "1800 805 801",
    "website": "https://thirrili.com.au",
    "actionType": "phone",
    "descZh": "為 Aboriginal and Torres Strait Islander 社群提供喪親及創傷支援。",
    "descEn": "Postvention support for Aboriginal and Torres Strait Islander communities.",
    "rank": 195,
    "enabled": true,
    "hoursZh": "24/7",
    "hoursEn": "24/7"
  },
  {
    "itemId": "support-gambling-helpline",
    "nameZh": "戒賭求助熱線",
    "nameEn": "Gambling Help Line",
    "categoryId": "support",
    "states": "NSW, VIC, QLD, SA, NT, WA, TAS, ACT",
    "phone": "1800 858 858",
    "website": "https://www.gamblinghelponline.org.au",
    "actionType": "phone",
    "descZh": "24 小時戒賭支援，亦可網上聊天。",
    "descEn": "24/7 gambling support; online chat available.",
    "rank": 196,
    "enabled": true,
    "hoursZh": "24/7",
    "hoursEn": "24/7"
  },
  {
    "itemId": "support-legalaccess-nsw",
    "nameZh": "NSW 法律查詢與轉介",
    "nameEn": "LawAccess NSW",
    "categoryId": "legal",
    "states": "NSW",
    "phone": "1300 888 529",
    "website": "https://www.lawaccess.nsw.gov.au",
    "actionType": "phone",
    "descZh": "免費法律資訊、初步意見及轉介（民事、家庭、一般法律問題）。需要申請法律援助／個案跟進可再轉介至 Legal Aid NSW。",
    "descEn": "Free legal information, initial advice and referral (civil, family and general legal issues).",
    "rank": 197,
    "enabled": true,
    "hoursZh": "星期一至五 9am–5pm（公眾假期除外；以官網為準）",
    "hoursEn": "Mon–Fri 9am–5pm (excl. public holidays; see website)"
  },
  {
    "itemId": "support-dvconnect-women",
    "nameZh": "QLD 家暴支援（女性）",
    "nameEn": "DVConnect Womensline",
    "categoryId": "support",
    "states": "QLD",
    "phone": "1800 811 811",
    "website": "https://www.dvconnect.org",
    "actionType": "phone",
    "descZh": "昆州 24 小時家暴支援、庇護轉介與安全計劃（女性及帶同子女）。",
    "descEn": "24/7 DV crisis counselling, refuge referral and safety planning for women in QLD.",
    "rank": 198,
    "enabled": true,
    "hoursZh": "24/7",
    "hoursEn": "24/7"
  },
  {
    "itemId": "support-dvconnect-men",
    "nameZh": "QLD 家暴支援（男性）",
    "nameEn": "DVConnect Mensline",
    "categoryId": "support",
    "states": "QLD",
    "phone": "1800 600 636",
    "website": "https://www.dvconnect.org",
    "actionType": "phone",
    "descZh": "昆州男士家暴支援、轉介及輔導。",
    "descEn": "DV support, counselling and referral for men in QLD.",
    "rank": 199,
    "enabled": true,
    "hoursZh": "每日（以官網為準）",
    "hoursEn": "Daily (see website)"
  },
  {
    "itemId": "support-dvconnect-sexual-assault-qld",
    "nameZh": "QLD 性侵支援熱線",
    "nameEn": "DVConnect Sexual Assault Line",
    "categoryId": "support",
    "states": "QLD",
    "phone": "1800 010 120",
    "website": "https://www.dvconnect.org",
    "actionType": "phone",
    "descZh": "性侵相關輔導及支援（QLD）。",
    "descEn": "Sexual assault counselling and support (QLD).",
    "rank": 200,
    "enabled": true,
    "hoursZh": "每日（以官網為準）",
    "hoursEn": "Daily (see website)"
  },
  {
    "itemId": "support-carergateway",
    "nameZh": "照顧者支援",
    "nameEn": "Carer Gateway",
    "categoryId": "support",
    "states": "NSW, VIC, QLD, SA, NT, WA, TAS, ACT",
    "phone": "1800 422 737",
    "website": "https://www.carergateway.gov.au",
    "actionType": "phone",
    "descZh": "照顧者支援與緊急喘息服務安排入口。",
    "descEn": "Support for carers and access to emergency respite services.",
    "rank": 201,
    "enabled": true,
    "hoursZh": "24/7（部分服務安排因地區而異）",
    "hoursEn": "24/7 (service delivery varies)"
  },
  {
    "itemId": "support-rainbow-violence-helpline",
    "nameZh": "LGBTIQA+ 家暴/性暴力支援",
    "nameEn": "Rainbow Sexual, Domestic & Family Violence Helpline",
    "categoryId": "support",
    "states": "NSW, VIC, QLD, SA, NT, WA, TAS, ACT",
    "phone": "1800 497 212",
    "website": "https://www.acon.org.au",
    "actionType": "phone",
    "descZh": "LGBTIQA+ 專屬家暴/性暴力支援與轉介。",
    "descEn": "LGBTIQA+ specific support and referral for sexual, domestic and family violence.",
    "rank": 202,
    "enabled": true,
    "hoursZh": "24/7",
    "hoursEn": "24/7"
  },
  {
    "itemId": "support-steps-together",
    "nameZh": "Step Together（反暴力極端化支援）",
    "nameEn": "Step Together",
    "categoryId": "support",
    "states": "NSW, VIC, QLD, SA, NT, WA, TAS, ACT",
    "phone": "1800 875 204",
    "website": "https://steptogether.gov.au",
    "actionType": "phone",
    "descZh": "早期介入、關注 violent extremism 相關擔憂可求助。",
    "descEn": "Early intervention support for concerns related to violent extremism.",
    "rank": 203,
    "enabled": true,
    "hoursZh": "Mon–Fri 9am–5pm (AEST)",
    "hoursEn": "Mon–Fri 9am–5pm (AEST)"
  },
  {
    "itemId": "support-national-security-hotline",
    "nameZh": "National Security Hotline",
    "nameEn": "National Security Hotline",
    "categoryId": "support",
    "states": "NSW, VIC, QLD, SA, NT, WA, TAS, ACT",
    "phone": "1800 123 400",
    "website": "https://www.nationalsecurity.gov.au",
    "actionType": "phone",
    "descZh": "舉報可疑恐怖活動或國家安全相關事件。",
    "descEn": "Report suspicious activity related to terrorism or national security.",
    "rank": 204,
    "enabled": true,
    "hoursZh": "24/7",
    "hoursEn": "24/7"
  },
  {
    "itemId": "support-financial-rights",
    "nameZh": "Financial Rights Legal Centre（財務法律/債務）",
    "nameEn": "Financial Rights Legal Centre",
    "categoryId": "financial",
    "states": "NSW",
    "phone": "1800 844 949",
    "website": "https://financialrights.org.au",
    "actionType": "phone",
    "descZh": "債務、消費者/銀行糾紛法律資訊與支援（NSW 為主，亦有大量全國資源）。",
    "descEn": "Legal advice on debt and financial/consumer issues (NSW-based, national resources).",
    "rank": 205,
    "enabled": true,
    "hoursZh": "辦公時間（以官網為準）",
    "hoursEn": "Business hours (see website)"
  },
  {
    "itemId": "support-housing-vic-crisis",
    "nameZh": "VIC 無家可歸入口（危機住宿）",
    "nameEn": "HousingVic / Crisis accommodation entry",
    "categoryId": "housing",
    "states": "VIC",
    "phone": "1800 825 955",
    "website": "https://www.housing.vic.gov.au",
    "actionType": "phone",
    "descZh": "維州無家可歸及危機住宿求助入口（After hours）。",
    "descEn": "Victoria homelessness and crisis accommodation entry (after hours).",
    "rank": 206,
    "enabled": true,
    "hoursZh": "After hours（以官網為準）",
    "hoursEn": "After hours (see website)"
  },
  {
    "itemId": "support-qld-housing",
    "nameZh": "Housing QLD（無家可歸支援入口）",
    "nameEn": "Housing Queensland / Homelessness",
    "categoryId": "housing",
    "states": "QLD",
    "phone": "1300 468 746",
    "website": "https://www.qld.gov.au/housing",
    "actionType": "phone",
    "descZh": "昆州住屋及無家可歸支援入口。",
    "descEn": "Queensland housing and homelessness support entry.",
    "rank": 207,
    "enabled": true,
    "hoursZh": "24/7（部分線路以官網為準）",
    "hoursEn": "24/7 (some lines vary; see website)"
  },
  {
    "itemId": "support-wa-crisis-care",
    "nameZh": "WA Crisis Care（家庭/兒童危機）",
    "nameEn": "Crisis Care (WA)",
    "categoryId": "support",
    "states": "WA",
    "phone": "1800 199 008",
    "website": "https://www.wa.gov.au/service/community-services/community-support/crisis-care",
    "actionType": "phone",
    "descZh": "兒童保護及家庭危機支援（After hours）。",
    "descEn": "After-hours response for child protection and family crisis situations in WA.",
    "rank": 208,
    "enabled": true,
    "hoursZh": "After hours（以官網為準）",
    "hoursEn": "After hours (see website)"
  },
  {
    "itemId": "transport-metro-tas",
    "nameZh": "TAS 公共交通資訊",
    "nameEn": "Metro Tasmania",
    "categoryId": "transport",
    "states": "TAS",
    "phone": "13 22 01",
    "website": "https://www.metrotas.com.au",
    "actionType": "phone",
    "descZh": "塔州巴士路線、班次、票務及行程查詢（Metro Tasmania）。",
    "descEn": "Tasmania bus services info, timetables and travel enquiries (Metro Tasmania).",
    "rank": 31,
    "enabled": true,
    "hoursZh": "以官網為準",
    "hoursEn": "See website"
  },
  {
    "itemId": "transport-act",
    "nameZh": "ACT 公共交通資訊",
    "nameEn": "Transport Canberra (Public Transport)",
    "categoryId": "transport",
    "states": "ACT",
    "phone": "13 17 10",
    "website": "https://www.transport.act.gov.au",
    "actionType": "phone",
    "descZh": "首都領地公共交通資訊、MyWay、班次及服務更新查詢。",
    "descEn": "Canberra public transport info, MyWay, timetables and service updates.",
    "rank": 32,
    "enabled": true,
    "hoursZh": "辦公時間（以官網為準）",
    "hoursEn": "Business hours (see website)"
  },
  {
    "itemId": "transport-adelaide-metro",
    "nameZh": "SA 公共交通資訊",
    "nameEn": "Adelaide Metro",
    "categoryId": "transport",
    "states": "SA",
    "phone": "1300 311 108",
    "website": "https://www.adelaidemetro.com.au",
    "actionType": "phone",
    "descZh": "南澳公共交通資訊、路線班次、票務與服務查詢。",
    "descEn": "South Australia public transport info, timetables, tickets and service enquiries.",
    "rank": 33,
    "enabled": true,
    "hoursZh": "每日（以官網為準）",
    "hoursEn": "See website"
  },
  {
    "itemId": "transport-darwinbus",
    "nameZh": "NT 公共交通資訊",
    "nameEn": "Darwinbus (NT)",
    "categoryId": "transport",
    "states": "NT",
    "phone": "08 8924 7666",
    "website": "https://nt.gov.au/driving/public-transport-cycling/public-buses-in-darwin-and-palmerston",
    "actionType": "phone",
    "descZh": "北領地（達爾文/Palmerston）公共巴士資訊與查詢。",
    "descEn": "NT public bus info for Darwin/Palmerston and services.",
    "rank": 34,
    "enabled": true,
    "hoursZh": "以官網為準",
    "hoursEn": "See website"
  }
]